STORE NAME,LICENSE ID,ACCOUNT NUMBER,SQUARE FEET,BUFFER SIZE,ADDRESS,ZIP CODE,COMMUNITY AREA NAME,COMMUNITY AREA,WARD,CENSUS TRACT,CENSUS BLOCK,LATITUDE,LONGITUDE
Bob's Liquors & Groceries,957,86492,10001,A,5069 W MADISON ST,60644,AUSTIN,25,28,17031252201,170312522011000,41.8802960895,-87.7524941982
Quick Stop Food Mart,39791,3604,3000,B,2751 W PRATT BLVD,60645,WEST RIDGE,2,50,17031020601,170310206011001,42.0047500731,-87.6994227766
Whole Foods,41674,5033,68000,A,1340 S CANAL ST,60607,NEAR WEST SIDE,28,2,17031841900,170318419002092,41.8645211937,-87.6393040996
Cermak Produce,1515206,279468,25000,A,5220 S PULASKI RD,60632,WEST ELSDON,62,23,17031620200,170316202001000,41.7979918700,-87.7234437408
Whole Foods,54059,86298,4501,B,3300 N ASHLAND AVE,60657,LAKE VIEW,6,44,17031062500,170310625001000,41.9415658578,-87.6688604029
Patel Bros,25338,88729,5000,B,2610 W DEVON AVE,60659,WEST RIDGE,2,50,17031020602,170310206023013,41.9977473006,-87.6952511581
Ohio Food Mart,1225367,243092,3500,B,5345 W OHIO ST,60644,AUSTIN,25,37,17031251500,170312515002004,41.8910492873,-87.7597328373
Joe's Food & Liquor,822,154,3500,B,3626 W LAWRENCE AVE,60625,ALBANY PARK,14,39,17031140301,170311403011011,41.9684452460,-87.7194165758
Two Blue Foods Inc,66710,20549,3000,B,702 E 100TH PL,60628,PULLMAN,50,8,17031500100,170315001004015,41.7124037870,-87.6051275894
Jewel Food Store,1353385,259,64285,A,2520 N NARRAGANSETT AVE,60639,BELMONT CRAGIN,19,36,17031831500,170318315001045,41.9262969563,-87.7856948240
200 Liquors,48663,17055,5000,B,204 E 47TH ST,60653,GRAND BOULEVARD,38,3,17031381500,170313815001007,41.8094238941,-87.6209518020
Carniceria La Gloria,1471030,271545,6500,B,2551 W 51ST ST,60632,GAGE PARK,63,14,17031630500,170316305001004,41.8009692763,-87.6887220987
Whole Foods,1678043,86298,11310,A,1101 S CANAL ST,60607,NEAR WEST SIDE,28,2,17031841900,170318419002074,41.8688897111,-87.6390989281
Peterson Food Mart,1272746,251347,2500,B,2534 W PETERSON AVE,60659,WEST RIDGE,2,50,17031020802,170310208021019,41.9905852147,-87.6935345218
Stanley's,15042,6609,10001,A,1558 N ELSTON AVE,60622,WEST TOWN,24,32,17031842300,170318423001025,41.9105746696,-87.6622352294
Food 4 Less,1884255,251246,58000,A,4821 W NORTH AVE,60639,AUSTIN,25,37,17031250800,170312508001000,41.9095051477,-87.7469599363
Commercial Grocery,56894,23932,2500,B,3004 E 100TH ST,60617,SOUTH DEERING,51,10,17031510100,170315101002007,41.7134978435,-87.5507331066
Jewel Food Store,1953613,259,62603,A,11730 S MARSHFIELD AVE,60643,MORGAN PARK,75,34,17031750500,170317505004003,41.6803322053,-87.6625846787
"La Unica Food Mart, Inc.",491,90,5000,B,1515 W DEVON AVE,60660,EDGEWATER,77,40,17031030200,170310302004002,41.9979934597,-87.6684278857
Mid Town Foods,39968,15264,3520,B,3855 W DIVISION ST,60651,HUMBOLDT PARK,23,27,17031231200,170312312004002,41.9025838739,-87.7236192485
"7400 S Halsted Food And Liquors, Inc.",980,186,10001,A,7400 S HALSTED ST,60621,ENGLEWOOD,68,17,17031681300,170316813003005,41.7596745819,-87.6444202389
Three Brother,6321,62766,10001,A,900 N FRANCISCO AVE,60622,WEST TOWN,24,26,17031242700,170312427001004,41.8981068159,-87.6993783779
Cuenca's Bakery & Groceries,1619464,292181,4500,B,4229 W MONTROSE AVE,60641,IRVING PARK,16,38,17031160300,170311603003002,41.9607675196,-87.7339469271
Jewel Food Store,1409,259,35000,A,4660 W IRVING PARK RD,60641,PORTAGE PARK,15,45,17031831700,170318317001021,41.9535544384,-87.7450553112
Roman Bros 1 Inc,11900,5925,10001,A,6978 N CLARK ST,60626,ROGERS PARK,1,49,17031010702,170310107022004,42.0088564722,-87.6740803740
Tai Nam Corporation,34508,88874,10001,A,4925 N BROADWAY,60640,UPTOWN,3,48,17031031200,170310312002004,41.9722135570,-87.6596091001
La Jaliscience,4749,23661,3000,B,3239 W 26TH ST,60623,SOUTH LAWNDALE,30,22,17031840800,170318408001002,41.8443879922,-87.7064970959
Hollywood Tower Mkt,1858,62539,3000,B,5701 N SHERIDAN RD,60660,EDGEWATER,77,48,17031030604,170310306042001,41.9856384210,-87.6550943233
A & R Food Mart,1954411,340750,3500,B,5952 W GRAND AVE,60639,BELMONT CRAGIN,19,37,17031191302,170311913021018,41.9205964582,-87.7751926809
S. S. Food & Liquor,1476109,272992,2703,B,2427 N CLARK ST,60614,LINCOLN PARK,7,43,17031070101,170310701012002,41.9263716974,-87.6408000783
S L Pantry & Grill,2013420,17935,2600,B,4759 N SHERIDAN RD,60640,UPTOWN,3,46,17031031501,170310315012001,41.9690466747,-87.6546740590
Andys Fruit Ranch,1275209,3868,15000,A,4733 N KEDZIE AVE,60625,ALBANY PARK,14,33,17031140800,170311408005008,41.9676291597,-87.7083036873
Whole Foods,1273445,5033,39000,A,1 N HALSTED ST,60661,NEAR WEST SIDE,28,27,17031280100,170312801001038,41.8818156316,-87.6472147170
Save-a-lot,1299911,216203,,A,3939 W OGDEN AVE,60623,NORTH LAWNDALE,29,22,17031843400,170318000000000,41.8512884900,-87.7238508400
W K R B Food & Liquor,25165,10242,4340,B,9361 S COTTAGE GROVE AVE,60619,CHATHAM,44,8,17031440800,170314408002017,41.7238602893,-87.6043647208
Osama Food Mart,2031620,352625,2800,B,615 E 67TH ST,60637,WOODLAWN,42,20,17031421200,170314212001005,41.7729575221,-87.6099733981
El  Paseo  Boricua,1301216,254645,3000,B,2706 W DIVISION ST,60622,WEST TOWN,24,26,17031242600,170312426001013,41.9030542001,-87.6947704208
Food Basket,1682475,291625,2500,B,7205 S HALSTED ST,60621,ENGLEWOOD,68,17,17031681300,170316813001006,41.7631811950,-87.6442150210
Shop & Save Market,1991275,338404,63426,A,5829 S ARCHER AVE,60638,GARFIELD RIDGE,56,23,17031560700,170315607002039,41.7960196245,-87.7596833672
Gene's Sausage Shop & Deli,1922145,335302,6000,B,4746 N LINCOLN AVE,60625,LINCOLN SQUARE,4,47,17031040600,170310406003004,41.9677536575,-87.6881717161
Aldi Foods,1868821,5273,16117,A,821 W 115TH ST,60643,WEST PULLMAN,53,34,17031530300,170315303001000,41.6849606404,-87.6430223096
Super Furniture & Food Mart,2060727,357170,4000,B,5257 S ASHLAND AVE,60609,NEW CITY,61,16,17031611900,170316119001005,41.7978225881,-87.6645368783
Aldi Foods,14004,5273,15600,A,4645 W DIVERSEY AVE,60639,HERMOSA,20,31,17031190900,170311909001000,41.9314609382,-87.7437173070
Los Potrillos,1650212,299177,7000,B,3624 W BELMONT AVE,60618,AVONDALE,21,35,17031831100,170318311004023,41.9393095160,-87.7185399405
Mayflower Food,1168793,17975,6000,B,2104 S ARCHER AVE,60616,ARMOUR SQUARE,34,25,17031841100,170318411001021,41.8542653039,-87.6321895068
Municipal Foods,1478386,273724,9980,B,2559 W DIVISION ST,60622,WEST TOWN,24,26,17031242500,170312425001002,41.9028592342,-87.6918885843
Supermercado Tepecoa Guerrero,1493584,277252,3500,B,3629 W 63RD ST,60629,WEST LAWN,65,13,17031650302,170316503021002,41.7786847162,-87.7142516633
Aldi Foods,1226990,5273,20848,A,1246 E 87TH ST,60619,AVALON PARK,45,8,17031834300,170318343005004,41.7369153460,-87.5936566218
Aldi Foods,13998,5273,15540,A,2600 N CLYBOURN AVE,60614,LINCOLN PARK,7,32,17031070700,170310707002008,41.9286950012,-87.6741950831
Kaps Foods,57817,18562,4100,B,3557 S CALIFORNIA AVE,60632,BRIGHTON PARK,58,12,17031580100,170315801001006,41.8283836447,-87.6946201700
Sanabel Grocery & Bakery,2009055,349374,6200,B,4213 N KEDZIE AVE,60618,IRVING PARK,16,33,17031160601,170311606011005,41.9579834025,-87.7079959151
Alla's Food,1068956,204849,3500,B,2024 E 93RD ST,60617,CALUMET HEIGHTS,48,8,17031480400,170314804004023,41.7262403487,-87.5742922611
Al Bayan Grocery Inc.,1542202,282078,2500,B,3134 N NARRAGANSETT AVE,60634,BELMONT CRAGIN,19,36,17031831500,170318315001015,41.9375646502,-87.7860543686
Gene's Sausage Shop & Deli,1876,371,5000,B,5330 W BELMONT AVE,60641,PORTAGE PARK,15,38,17031151100,170311511002015,41.9387619658,-87.7604070714
Rigo's Grocery,1144306,215370,2500,B,2858 S LAWNDALE AVE,60623,SOUTH LAWNDALE,30,22,17031301702,170313017023004,41.8389367453,-87.7172305546
Walmart,,,,A,10900 S DOTY AVE W,60628,PULLMAN,50,9,17031500200,170315000000000,41.6963136800,-87.5966322400
Chicago Produce,1865,368,13500,A,3500 W LAWRENCE AVE,60625,ALBANY PARK,14,39,17031140200,170311402003015,41.9684853733,-87.7158713295
Dia Food & Liquor,41854,16133,4500,B,1478 W 115TH ST,60643,MORGAN PARK,75,34,17031750600,170317506004046,41.6849557984,-87.6597258290
"Park Foods Of 71st Street,inc.",1677517,300221,3500,B,2612 W 71ST ST,60629,CHICAGO LAWN,66,18,17031660900,170316609003037,41.7647171389,-87.6887509815
Pete's Market,1476553,273114,5000,B,1543 E 87TH ST,60619,CALUMET HEIGHTS,48,8,17031480200,170314802001001,41.7367954576,-87.5862725091
Hareer Food & Liquor,52337,17625,2500,B,5452 S HALSTED ST,60609,NEW CITY,61,20,17031612100,170316121001043,41.7945591033,-87.6453134277
Trader Joe's,1592120,211718,10615,A,44 E ONTARIO ST,60611,NEAR NORTH SIDE,8,42,17031081500,170310815002008,41.8934080204,-87.6264377426
Emilio's Produce,1675623,298914,2500,B,2294 N MILWAUKEE AVE,60647,LOGAN SQUARE,22,1,17031221400,170312214002002,41.9225974657,-87.6970976291
"Grand Palace Supermarket, Inc",49648,17200,3000,B,7131 S STATE ST,60619,GREATER GRAND CROSSING,69,6,17031691000,170316910004006,41.7645736329,-87.6247399651
Aldi Foods,1997726,5273,18263,A,7627 S ASHLAND AVE,60620,AUBURN GRESHAM,71,17,17031710300,170317103001013,41.7549909175,-87.6634041558
Super Mercado La Chiquita,6054,3546,9500,B,3555 W 26TH ST,60623,SOUTH LAWNDALE,30,22,17031301600,170313016001005,41.8442791237,-87.7145537663
Aldi Foods,1821323,5273,16550,A,10532 S INDIANAPOLIS AVE,60617,EAST SIDE,52,10,17031520100,170315201001079,41.7036623609,-87.5257124268
Carniceria Ricardo,35191,15006,5000,B,4419 W DIVERSEY AVE,60639,HERMOSA,20,31,17031200200,170312002004000,41.9315407469,-87.7375725127
Lindo Michoacan,42744,86194,8600,B,3142 W LAWRENCE AVE,60625,ALBANY PARK,14,33,17031140100,170311401002004,41.9685727721,-87.7077877013
"Super Food & Liquors, Inc.",40429,15748,4000,B,1049 W BRYN MAWR AVE,60660,EDGEWATER,77,48,17031030701,170310307011001,41.9835639150,-87.6571462910
Nayab Mart,1444872,269649,3125,B,2449 W DEVON AVE,60659,WEST RIDGE,2,50,17031020802,170310208024001,41.9975891244,-87.6918369148
Edgewater Produce,16765,6928,7400,B,5509 N CLARK ST,60640,EDGEWATER,77,48,17031030800,170310308001010,41.9819713770,-87.6683210323
Jewel Food Store,1144401,259,29299,A,6430 W IRVING PARK RD,60634,DUNNING,17,38,17031170100,170311701001008,41.9530102332,-87.7877071626
Los Sauces Grocery,1223250,230035,2800,B,5852 W DIVERSEY AVE,60639,BELMONT CRAGIN,19,30,17031190402,170311904022037,41.9312882001,-87.7732414533
The Warehouse,1843355,315225,6000,B,538 W 119TH ST,60628,WEST PULLMAN,53,34,17031530200,170315302003018,41.6779860017,-87.6362008551
Arista Foods,1473367,271891,10000,A,112 N MAY ST,60607,NEAR WEST SIDE,28,27,17031833000,170318330002084,41.8834021216,-87.6557252931
Morse Food And Meat Market,1518304,280735,17000,A,1430 W MORSE AVE,60626,ROGERS PARK,1,49,17031010600,170310106004012,42.0079949199,-87.6671741467
"Calabria Imports, Inc.",1357606,264103,3100,B,1905 W 103RD ST,60643,BEVERLY,72,19,17031720700,170317207001004,41.7064733245,-87.6693549885
Kol Tuv Kosher Foods Inc,12952,6158,3000,B,2938 W DEVON AVE,60659,WEST RIDGE,2,50,17031020601,170310206012018,41.9976012808,-87.7036126719
Aldi Foods,13984,5273,12646,A,6220 N CALIFORNIA AVE,60659,WEST RIDGE,2,50,17031020702,170310207022006,41.9946209588,-87.6996868624
Jewel Food Store,1142451,259,60271,A,1224 S WABASH AVE,60605,NEAR SOUTH SIDE,33,2,17031330100,170313301001004,41.8667243541,-87.6259611484
Washington Grocery,6249,23967,4200,B,4139 W FIFTH AVE,60624,WEST GARFIELD PARK,26,24,17031261000,170312610002013,41.8718636117,-87.7290573726
Walgreens,18449,147,,A,3405 S DR MARTIN LUTHER KING JR DR,60616,DOUGLAS,35,4,17031351000,170314000000000,41.8326245000,-87.6168411000
Fairway Food,2031993,352796,3000,B,2900 E 79TH ST,60649,SOUTH SHORE,43,7,17031431301,170314313011010,41.7520053919,-87.5540154169
Fresh Market Place,1382145,266140,20000,A,2600 N CENTRAL AVE,60639,BELMONT CRAGIN,19,30,17031190602,170311906022018,41.9276476796,-87.7662665211
The Fish Keg Inc,4908,3299,4000,B,2233 W HOWARD ST,60645,WEST RIDGE,2,49,17031020100,170310201002001,42.0193947424,-87.6860204976
Nance Food Mart,4756,3277,4500,B,10935 S WENTWORTH AVE,60628,ROSELAND,49,34,17031491000,170314910002007,41.6951531575,-87.6278202407
Riviera Foods,39650,89265,3500,B,3218 N HARLEM AVE,60634,DUNNING,17,36,17031170800,170311708001011,41.9385912816,-87.8069148007
J K & S Food & Liquor,1000978,32337,3024,B,503 W 59TH ST,60621,ENGLEWOOD,68,20,17031834600,170318346002004,41.7870390747,-87.6378127282
K & K Food & Liquor,62092,23937,4200,B,1130 W 51ST ST,60609,NEW CITY,61,16,17031611000,170316110001031,41.8015768439,-87.6537884728
William's Produce,2079521,359604,6375,B,6309 W GRAND AVE,60639,BELMONT CRAGIN,19,29,17031191301,170311913013002,41.9218942299,-87.7833975200
Chatham Food Market,1904290,331037,4500,B,327 E 79TH ST,60619,CHATHAM,44,6,17031440300,170314403002001,41.7509726753,-87.6169578802
Jewel Food Store,1406,259,29060,A,4042 W FOSTER AVE,60630,NORTH PARK,13,39,17031130200,170311302001019,41.9756241124,-87.7298445616
Cupboard Food & Liquor,7110,3758,3000,B,3260 W 55TH ST,60632,GAGE PARK,63,14,17031630300,170316303002035,41.7935891795,-87.7059457835
Paulina Market,1680919,301699,10000,A,3501 N LINCOLN AVE,60657,LAKE VIEW,6,32,17031831900,,41.9452541584,-87.6723897932
Carniceria Guanajuato,17340,63206,8800,B,1436 N ASHLAND AVE,60622,WEST TOWN,24,1,17031241500,170312415002000,41.9081153739,-87.6677638335
Pete's Market,1598145,292834,50000,A,3448 E 118TH ST,60617,HEGEWISCH,55,10,17031550100,170315501005014,41.6810595555,-87.5393675414
Whole Foods,1678035,86298,6335,B,6020 N CICERO AVE,60646,FOREST GLEN,12,39,17031120200,170311202004001,41.9904947718,-87.7484774142
E.M. Groceries,4863,3289,4500,B,5358 S CARPENTER ST,60609,NEW CITY,61,16,17031612000,170316120002009,41.7961289732,-87.6514349028
Save-a-lot,1196076,216203,12500,A,4439 W 63RD ST,60629,WEST LAWN,65,13,17031650301,170316503011004,41.7784159744,-87.7340575715
"Latin Grocery & Liquor, Inc",20046,8064,10001,A,3800 W NORTH AVE,60647,HUMBOLDT PARK,23,30,17031230400,170312304002014,41.9100494194,-87.7214580839
Athens Grocery,971,185,2600,B,324 S HALSTED ST,60661,NEAR WEST SIDE,28,27,17031833100,170318331001028,41.8771621281,-87.6473642897
Jewel Food Store,1411,259,10001,A,1655 E 95TH ST,60617,SOUTH DEERING,51,7,17031510300,170315103003000,41.7222631981,-87.5829176346
M & J Liquor & Grocery,15168,6639,2900,B,3654 W LAWRENCE AVE,60625,ALBANY PARK,14,39,17031140301,170311403011010,41.9684345799,-87.7204810114
Thrifty Food,1045545,28478,4000,B,928 W WILSON AVE,60640,UPTOWN,3,46,17031031501,170310315013003,41.9655577007,-87.6535592790
Whole Foods,41629,5033,10001,A,3145 S ASHLAND AVE,60608,MCKINLEY PARK,59,11,17031840400,170318404001032,41.8364683477,-87.6655669021
Save-a-lot,1245433,216203,15000,A,7908 S HALSTED ST,60620,AUBURN GRESHAM,71,17,17031710800,170317108001009,41.7503223874,-87.6441824061
Carniceria La Gloria,1514813,279304,7500,B,2744 W 55TH ST,60632,GAGE PARK,63,14,17031630500,170316305003017,41.7938118263,-87.6931506024
Whole Foods,41633,5033,10001,A,6312 N NAGLE AVE,60646,NORWOOD PARK,10,41,17031100200,170311002002001,41.9959852861,-87.7876371171
Strack & Van Til,1798602,308026,65400,A,2627 N ELSTON AVE,60647,LOGAN SQUARE,22,1,17031830900,170318309001006,41.9294892740,-87.6836878249
Corcorans Pantry Inc,9412,4333,4200,B,1105 W BRYN MAWR AVE,60660,EDGEWATER,77,48,17031030701,170310307011003,41.9835447852,-87.6582676725
Jewel Food Store,1372,259,17676,A,4734 N CUMBERLAND AVE,60656,OHARE,76,36,17031760802,170317608021009,41.9660114013,-87.8368311691
Supermercado El Guero No. 8,20973,8662,14000,A,2101 W CERMAK RD,60608,LOWER WEST SIDE,31,25,17031841300,170318413001000,41.8520256918,-87.6784122433
3600 Commissary,24279,9830,3800,B,3600 N LAKE SHORE DR,60613,LAKE VIEW,6,46,17031060900,170310609004001,41.9486836744,-87.6436497585
La Cienega Super Food Inc,65173,20310,10000,A,10736 S EWING AVE,60617,EAST SIDE,52,10,17031520300,170315203003000,41.6998148465,-87.5354268905
Morelia Supermarket,1648410,298039,12000,A,4833 W DIVERSEY AVE,60639,BELMONT CRAGIN,19,31,17031190800,170311908001001,41.9314062910,-87.7479369735
Burnham Plaza Mart,2014232,350131,2950,B,828 S WABASH AVE,60605,LOOP,32,2,17031320600,170313206002012,41.8714441963,-87.6260751303
International Foods Nw Inc,1129,215,14000,A,4404 W FULLERTON AVE,60639,HERMOSA,20,31,17031200200,170312002003012,41.9244726356,-87.7367895050
Michaels Fresh Market,2043177,354856,41000,A,1300 E 47TH ST,60653,KENWOOD,39,4,17031390100,170313901001017,41.8097727266,-87.5949608909
M & D Variety Store,18355,7524,4500,B,1300 W 111TH ST,60643,MORGAN PARK,75,34,17031750100,170317501004020,41.6923196266,-87.6546632113
Jewel Food Store,1192905,259,63407,A,1220 S ASHLAND AVE,60608,NEAR WEST SIDE,28,2,17031842900,170318429004020,41.8662541761,-87.6665241401
Three Stars Liquors,1488855,274865,4600,B,310 N KOSTNER AVE,60624,WEST GARFIELD PARK,26,28,17031260400,170312604001012,41.8858229904,-87.7357878114
79 Food Basket,1958784,341069,3000,B,1351 W 79TH ST,60620,AUBURN GRESHAM,71,21,17031710700,170317107001012,41.7503211206,-87.6581890529
Jewel Food Store,2037181,259,62349,A,3630 N SOUTHPORT AVE,60613,LAKE VIEW,6,44,17031060400,170310604002006,41.9480045508,-87.6641862307
Ashland Food And Liquors,11636,5463,10001,A,1554 W 95TH ST,60643,WASHINGTON HEIGHTS,73,21,17031730201,170317302011018,41.7213269867,-87.6625336585
Rose-ridge Foods,1145417,216010,3000,B,10500 S MICHIGAN AVE,60628,ROSELAND,49,9,17031490902,170314909022043,41.7034152187,-87.6208096791
Cottage Grove Food Mart,1898994,329883,4000,B,6307 S COTTAGE GROVE AVE,60637,WOODLAWN,42,20,17031420800,170314208001004,41.7801519592,-87.6057775241
T & Z Meat,1974575,343806,3000,B,3021 N CICERO AVE,60641,BELMONT CRAGIN,19,31,17031190100,170311901001017,41.9358159257,-87.7466186972
"La Loma ""carniceria Y Taqueria""",49880,17241,4501,B,2535 N LARAMIE AVE,60639,BELMONT CRAGIN,19,31,17031190800,170311908004009,41.9270360931,-87.7561061830
Carniceria Jimenez,48081,16943,19000,A,3850 W FULLERTON AVE,60647,LOGAN SQUARE,22,30,17031220701,170312207013015,41.9246283205,-87.7239533210
Hoa Nom Co,8425,62866,4200,B,1101 W ARGYLE ST,60640,UPTOWN,3,48,17031031200,170310312002002,41.9731612999,-87.6578331796
Royla Blue Foods,27007,63611,2500,B,4359 S CAMPBELL AVE,60632,BRIGHTON PARK,58,12,17031580700,170315807003013,41.8139376802,-87.6869220140
Jewel Food Store,1400,259,21785,A,6057 S WESTERN AVE,60636,CHICAGO LAWN,66,16,17031835000,170318350001001,41.7830611377,-87.6835988697
Quintessence,2033012,350756,3000,B,1532 N PULASKI RD,60651,HUMBOLDT PARK,23,30,17031230600,170312306001006,41.9091077550,-87.7266341469
Cermak Produce,1476654,273149,29000,A,4234 N KEDZIE AVE,60618,IRVING PARK,16,33,17031160501,170311605011009,41.9585967247,-87.7083095759
Old World Market,7507,3851,10001,A,5129 N BROADWAY,60640,UPTOWN,3,48,17031031200,170310312003004,41.9754753986,-87.6596970117
Mehrab Zabiha Meat & Tobacco,1094121,207539,3000,B,2445 W DEVON AVE,60659,WEST RIDGE,2,50,17031020802,170310208024001,41.9975920168,-87.6916681219
King Food & Liquor,40321,2926,3750,B,6858 S HALSTED ST,60621,ENGLEWOOD,68,6,17031681100,170316811001011,41.7689262968,-87.6446559970
Paulina Super Market Inc,4851,3286,7000,B,7622 N PAULINA ST,60626,ROGERS PARK,1,49,17031010100,170310101002010,42.0200873150,-87.6732345632
Aldi Foods,13986,5273,12300,A,3363 N MILWAUKEE AVE,60641,IRVING PARK,16,30,17031161300,170311613002008,41.9423835134,-87.7290108595
Aldi Foods,14006,5273,9495,B,1739 W CERMAK RD,60608,LOWER WEST SIDE,31,25,17031843200,170318432002043,41.8521511995,-87.6700746019
"My Ranch, Inc.",1899688,20694,8500,B,4650 N SHERIDAN RD,60640,UPTOWN,3,46,17031830700,170310315011002,41.9669775683,-87.6549446417
Save-a-lot,1167119,216203,114100,A,10700 S HALSTED ST,60628,MORGAN PARK,75,34,17031750100,170317501001000,41.6995474147,-87.6427519151
Mario 's Butcher Shop Fd Cntr,4248,85432,10001,A,5817 W MADISON ST,60644,AUSTIN,25,29,17031252101,170312521011003,41.8800449808,-87.7704933793
Bockwinkels,1491357,276156,7200,B,222 N COLUMBUS DR,60601,LOOP,32,42,17031320100,170313201002032,41.8863394160,-87.6208361500
Supermercado Alex,1772307,4076,9375,B,4134 W 31ST ST,60623,SOUTH LAWNDALE,30,22,17031301803,170313018032019,41.8369472381,-87.7281423632
Halal Meat & Grocery,55665,18191,2500,B,1414 W DEVON AVE,60660,ROGERS PARK,1,40,17031010600,170310106003008,41.9982373871,-87.6661711005
South Shore Food Market Inc.,2008403,349092,3000,B,7501 S JEFFERY BLVD,60649,SOUTH SHORE,43,8,17031431200,170314312002008,41.7587872873,-87.5759934845
Supermercado El Mexicano,1840895,295467,4387,B,6701 N CLARK ST,60626,ROGERS PARK,1,49,17031830600,170318306002009,42.0035849743,-87.6723519319
La Providencia Food Mart,16986,6991,2572,B,1658 W 21ST ST,60608,LOWER WEST SIDE,31,25,17031310800,170313108003010,41.8542193742,-87.6684581591
Aldi Foods,1515471,5273,15150,A,7800 S SOUTH CHICAGO AVE,60619,AVALON PARK,45,5,17031834300,170318343002003,41.7527456405,-87.5875234853
Whole Foods,41625,5033,10001,A,3350 N WESTERN AVE,60618,NORTH CENTER,5,47,17031843700,170318437001022,41.9427471952,-87.6883543215
Family Pride,77270,22785,12500,A,10601 S PULASKI RD,60655,MOUNT GREENWOOD,74,19,17031740200,170317402002010,41.7003552742,-87.7205408964
Aldi Foods,13974,5273,12571,A,2431 W MONTROSE AVE,60618,NORTH CENTER,5,47,17031050300,170310503001001,41.9611940986,-87.6899669704
Carniceria La Villa #2,2060542,357089,3289,B,5800 W GRAND AVE,60639,BELMONT CRAGIN,19,37,17031191302,170311913021021,41.9197749010,-87.7707265258
Treasure Island Foods,1303,85291,10001,A,75 W ELM ST,60610,NEAR NORTH SIDE,8,42,17031081000,170310810001000,41.9030261368,-87.6313487722
Jewel Food Store,1398,259,24262,A,1341 N PAULINA ST,60622,WEST TOWN,24,1,17031241500,170312415002012,41.9062437031,-87.6698622813
Whole Foods,1933690,86298,74883,A,1550 N KINGSBURY ST,60642,NEAR NORTH SIDE,8,32,17031842200,170318422001017,41.9093987878,-87.6530506979
Jewel Food Store,6157,62754,3000,B,8235 W IRVING PARK RD,60634,DUNNING,17,36,17031170500,170311705003004,41.9520185577,-87.8331668434
Harper Foods,57683,18537,3300,B,1455 E 57TH ST,60637,HYDE PARK,41,5,17031411100,170314111002000,41.7914105694,-87.5895326278
Potash Bros. Supermarket,164,21,12000,A,1525 N CLARK ST,60610,NEAR NORTH SIDE,8,42,17031080201,170310802012003,41.9101179449,-87.6314908914
Baltimore Food & Liquor,1446831,270755,3404,B,13322 S BALTIMORE AVE,60633,HEGEWISCH,55,10,17031550100,170315501004012,41.6529646117,-87.5472986528
Supermercado Santos,1091886,206261,4000,B,4045 W 31ST ST,60623,SOUTH LAWNDALE,30,22,17031830500,170318305001001,41.8367499608,-87.7261326568
Cermak Produce,53313,17784,10000,A,4800 W DIVERSEY AVE,60639,BELMONT CRAGIN,19,31,17031190200,170311902004016,41.9316414204,-87.7467199106
Nickel Liquor & Mini Mart Inc,22084,9178,10001,A,3637 W DIVISION ST,60651,HUMBOLDT PARK,23,27,17031231200,170312312001002,41.9026337556,-87.7179312389
Trader Joe's,1277005,211718,11600,A,1840 N CLYBOURN AVE,60614,LINCOLN PARK,7,32,17031832600,170318326002019,41.9144237141,-87.6546278430
Walgreens,18419,147,,A,1554 E 55TH ST,60615,HYDE PARK,41,4,17031410800,170314000000000,41.7952973200,-87.5878225600
"Tony's Finer Foods Enterprises, Inc.",1717529,305203,31000,A,4137 N ELSTON AVE,60618,IRVING PARK,16,39,17031160400,170311604001027,41.9561262015,-87.7224828263
Natural Country Deli,2017781,350688,3500,B,6452 N MILWAUKEE AVE,60631,NORWOOD PARK,10,41,17031100200,170311002001019,41.9984929696,-87.7890953687
Logan Certified Foods Corp,1046303,23391,4500,B,2857 W DIVERSEY AVE,60647,LOGAN SQUARE,22,35,17031220400,170312204001003,41.9319704700,-87.6999316190
Jewel Food Store,1366,259,30374,A,5320 S PULASKI RD,60632,WEST ELSDON,62,23,17031620200,170316202001001,41.7961975914,-87.7233918834
Mounsef International,21126,86704,10001,A,4738 N KEDZIE AVE,60625,ALBANY PARK,14,33,17031140701,170311407011000,41.9677930872,-87.7086027049
El Yunque Food & Liquor,1986802,346323,2500,B,1900 N CALIFORNIA AVE,60647,LOGAN SQUARE,22,35,17031222500,170312225001000,41.9157610232,-87.6972958109
"Seven Nine Eleven Food Mart, Inc.",2036,401,4300,B,4884 S ARCHER AVE,60632,ARCHER HEIGHTS,57,14,17031570400,170315704002008,41.8046211506,-87.7199070655
A & R Food Mart,9125,4227,2500,B,5952 W GRAND AVE,60639,BELMONT CRAGIN,19,37,17031191302,170311913021018,41.9205964582,-87.7751926809
Grand Food Market,1221783,223107,3952,B,5202 W GRAND AVE,60639,BELMONT CRAGIN,19,37,17031191200,170311912002006,41.9170677465,-87.7560413324
Sam Food And Liquor,8745,4153,3000,B,6812 N SHERIDAN RD,60626,ROGERS PARK,1,49,17031010502,170310105022000,42.0059448161,-87.6611747511
Almuflihi Food & Liquor,62800,86373,4500,B,5404 S HALSTED ST,60609,NEW CITY,61,20,17031612100,170316121001039,41.7958707987,-87.6453441182
Pete's Market,1646096,296662,7500,B,2001 W 71ST ST,60636,WEST ENGLEWOOD,67,17,17031672000,170316720003002,41.7646961210,-87.6735927847
Five Star Certified Inc,7168,3771,5000,B,935 W 87TH ST,60620,AUBURN GRESHAM,71,21,17031711400,170317114002006,41.7359084057,-87.6474228803
Whole Foods,1574461,5033,49320,A,255 E GRAND AVE,60611,NEAR NORTH SIDE,8,42,17031081403,170310814031010,41.8916898398,-87.6204441348
Super Mercado El Guerro,7546,3857,9375,B,1701 W 47TH ST,60609,NEW CITY,61,20,17031611300,170316113003000,41.8084712383,-87.6674545133
Pete's Market,1771242,312119,,A,2526 W CERMAK RD,60608,SOUTH LAWNDALE,30,28,17031840700,170318000000000,41.8521006500,-87.6890511100
Chicago Health - Maple Street,2065274,357879,2900,B,22 W MAPLE ST,60610,NEAR NORTH SIDE,8,42,17031081100,170310811003002,41.9019825524,-87.6292631031
New Pop-in,1719179,306063,8784,B,413 S KEDZIE AVE,60612,EAST GARFIELD PARK,27,28,17031271200,170312712001033,41.8754237451,-87.7058203625
W & R Food & Liquor Inc,19348,7922,2700,B,1717 E 79TH ST,60649,SOUTH CHICAGO,46,8,17031460500,170314605007008,41.7514187003,-87.5822058165
"Kan-zaman Mart, Inc.",1119908,209575,4600,B,2005 S MICHIGAN AVE,60616,NEAR SOUTH SIDE,33,2,17031330100,170313301004046,41.8553176710,-87.6237265152
Z & S Food & Liquor,7382,3827,6000,B,1351 W 87TH ST,60620,AUBURN GRESHAM,71,21,17031711400,170317114001000,41.7357569772,-87.6578282347
Devon Market,1042888,201952,18500,A,1440 W DEVON AVE,60660,ROGERS PARK,1,40,17031010600,170310106003012,41.9982282538,-87.6671044665
Jewel Food Store,1404,259,32294,A,9400 S ASHLAND AVE,60620,WASHINGTON HEIGHTS,73,21,17031730300,170317303001029,41.7229412182,-87.6628628713
Orleans Market,23467,9485,3002,B,316 W ILLINOIS ST,60610,NEAR NORTH SIDE,8,42,17031081800,170310818002056,41.8908642852,-87.6363291879
Caesar's Foods Inc,13670,6312,10001,A,901 N DAMEN AVE,60622,WEST TOWN,24,32,17031242200,170312422002006,41.8977792769,-87.6769588663
Happy Foods,1618660,294177,11000,A,6783 N NORTHWEST HWY,60631,EDISON PARK,9,41,17031090200,170310902004007,42.0043992612,-87.8184857554
"Way Low Discount Food, Inc.",41036,16053,2500,B,1551 S KEDZIE AVE,60623,NORTH LAWNDALE,29,24,17031843100,170318431001029,41.8598459614,-87.7053385540
Zee Dollar And Food,2014197,350114,3000,B,375 E 75TH ST,60619,GREATER GRAND CROSSING,69,6,17031691300,170316913001000,41.7582933150,-87.6153541087
J R Grocery Store,5644,3466,10001,A,505 E 134TH ST,60827,RIVERDALE,54,9,17031540101,170315401011006,41.6517610645,-87.6093666123
Centro Market,66257,20469,9100,B,5153 S KEDZIE AVE,60632,GAGE PARK,63,14,17031630400,170316304004004,41.7992570437,-87.7035747066
Save-a-lot,1145759,216203,14166,A,7240 S STONY ISLAND AVE,60649,SOUTH SHORE,43,5,17031430400,170314304002007,41.7630223653,-87.5863901619
"Tony's Finer Foods Enterprises, Inc.",1717532,305203,33000,A,4608 W BELMONT AVE,60641,PORTAGE PARK,15,30,17031151002,170311510024000,41.9389938243,-87.7426989895
Food 4 Less,1272529,251246,64486,A,4620 S DAMEN AVE,60609,NEW CITY,61,12,17031610300,170316103003015,41.8096685280,-87.6751156964
Adams Food Mart,1817376,316090,2500,B,559 N LARAMIE AVE,60644,AUSTIN,25,28,17031251600,170312516003011,41.8910335471,-87.7553096457
Dollar & Linen,1875260,46290,5800,B,1853 W 87TH ST,60620,AUBURN GRESHAM,71,21,17031711300,170317113001005,41.7355890742,-87.6699517263
Aldi Foods,1242812,5273,15000,A,5629 W FILLMORE ST,60644,AUSTIN,25,29,17031831400,170318314002056,41.8673156479,-87.7655979430
Richwell Market,1070189,205927,7500,B,1835 S CANAL ST,60616,LOWER WEST SIDE,31,25,17031843200,170318432002008,41.8566571782,-87.6387533453
Walgreens,18768,7551,,A,6315 S KEDZIE AVE,60629,CHICAGO LAWN,66,15,17031660600,170317000000000,41.7784213400,-87.7029760600
Whole Foods,41645,5033,10001,A,6009 N BROADWAY,60660,EDGEWATER,77,48,17031030101,170310301011003,41.9911817534,-87.6601550832
Budget Finer Foods,1337515,260726,3200,B,6604 N SHERIDAN RD,60626,ROGERS PARK,1,49,17031010502,170310105021006,42.0027261067,-87.6609383664
Discount Pantry Corporation,32952,14616,3600,B,4153 W 63RD ST,60629,WEST LAWN,65,13,17031650301,170316503013003,41.7784929073,-87.7273275190
Par Birdie Foods,28222,11464,6000,B,2234 W DEVON AVE,60659,WEST RIDGE,2,50,17031020500,170310205002010,41.9979009735,-87.6863782179
Jewel Food Store,1375,259,22443,A,2940 N ASHLAND AVE,60657,LAKE VIEW,6,32,17031062600,170310626001023,41.9354720327,-87.6686545431
Charlies  Supermarket Inc.,1441898,268397,2500,B,2941 W MONTROSE AVE,60618,IRVING PARK,16,33,17031160601,170311606012000,41.9611144263,-87.7025869386
Jewel Food Store,1192909,259,56010,A,3400 N WESTERN AVE,60618,NORTH CENTER,5,47,17031843700,170318437001018,41.9431873732,-87.6883020207
Pete's Market,1336669,260303,57000,A,4343 S PULASKI RD,60632,ARCHER HEIGHTS,57,14,17031570100,170315701001015,41.8139143113,-87.7236649419
La Feria Grocery,26609,11067,10001,A,9704 S COMMERCIAL AVE,60617,SOUTH DEERING,51,10,17031510100,170315101002033,41.7189121563,-87.5511742972
Potash Bros Inc,19826,8018,10001,A,875 N STATE ST,60610,NEAR NORTH SIDE,8,42,17031081201,170310812012003,41.8988781974,-87.6281111483
Imperial Tower Market,22624,9323,6031,B,4250 N MARINE DR,60613,UPTOWN,3,46,17031031400,170310314001001,41.9600199540,-87.6469060276
Moo & Oink Inc,11915,5928,21500,A,4848 W MADISON ST,60644,AUSTIN,25,28,17031251800,170312518004015,41.8805838854,-87.7470529414
Save-a-lot,2079367,216203,16290,A,344 E 63RD ST,60637,WASHINGTON PARK,40,20,17031400800,170314008001008,41.7803216101,-87.6171353804
Market In The Park,1334026,258947,5049,B,5050 S LAKE SHORE DR,60615,KENWOOD,39,4,17031390700,170313907003004,41.8028797781,-87.5818436939
Sun Liquors,19461,88712,4350,B,1101 W GRANVILLE AVE,60660,EDGEWATER,77,48,17031030102,170310301022001,41.9944657079,-87.6583928132
Supermercado Chapala,32236,86830,10001,A,7117 N CLARK ST,60626,ROGERS PARK,1,49,17031010702,170310107024002,42.0119757995,-87.6743840578
Supermercado Gela's,67273,20695,3125,B,2701 S LAWNDALE AVE,60623,SOUTH LAWNDALE,30,22,17031301701,170313017012003,41.8424245295,-87.7170303155
Farm Super Market,2017764,339512,3000,B,2255 W DEVON AVE,60659,WEST RIDGE,2,50,17031020901,170310209011002,41.9976669579,-87.6872134560
Aldi Foods,13964,5273,13981,A,5775 S ARCHER AVE,60638,GARFIELD RIDGE,56,23,17031560700,170315607002042,41.7963804895,-87.7573475722
Aldi Foods,13976,5273,11760,A,1767 N MILWAUKEE AVE,60647,WEST TOWN,24,32,17031831000,170318310001003,41.9135877900,-87.6822028354
Eddie & Son Food &liq.,4146,3169,2500,B,3624 W NORTH AVE,60647,HUMBOLDT PARK,23,26,17031230400,170312307001000,41.9100926711,-87.7175753532
La Casa Del Pueblo Inc,31675,14392,10001,A,1810 S BLUE ISLAND AVE,60608,LOWER WEST SIDE,31,25,17031310600,170313106002008,41.8574527464,-87.6616883311
Aldi Foods,1817903,5273,15255,A,4500 N BROADWAY,60640,UPTOWN,3,46,17031830700,170318307004004,41.9637889643,-87.6566064924
Fairplay Finer Food,10940,86481,10001,A,2200 S WESTERN AVE,60608,LOWER WEST SIDE,31,25,17031841300,170318413002001,41.8519838396,-87.6857857042
Laramie Bakery & Deli,2014141,350093,12331,A,3232 N HARLEM AVE,60634,DUNNING,17,36,17031170800,170311708001011,41.9389859689,-87.8069290648
B & H Food & Grocery,6068,3550,4500,B,713 S ALBANY AVE,60612,EAST GARFIELD PARK,27,28,17031837300,170318373001010,41.8723500430,-87.7032726418
Fruteria El Mercado,21239,8832,5500,B,2759 S SPAULDING AVE,60623,SOUTH LAWNDALE,30,22,17031840800,170318408001015,41.8409331636,-87.7072241769
Mandy's Liquor,17168,7030,3000,B,1957 W LAWRENCE AVE,60640,LINCOLN SQUARE,4,47,17031830800,170318308001003,41.9686561373,-87.6784384790
Aldi Foods,1519765,5273,15154,A,4934 S KEDZIE AVE,60632,BRIGHTON PARK,58,14,17031630300,170316303002000,41.8034457131,-87.7039862718
The Market Place Foodstore,10794,24875,16900,A,521 W DIVERSEY PKWY,60614,LINCOLN PARK,7,43,17031070102,170310701022000,41.9327439571,-87.6422188452
Eddie's Food Mart,50432,17311,4500,B,1858 W 63RD ST,60636,WEST ENGLEWOOD,67,15,17031670600,170316706002016,41.7794611564,-87.6714366715
Riverside Deli,6403,3619,5500,B,1656 W CORTLAND ST,60622,LOGAN SQUARE,22,32,17031832300,170318323001048,41.9161861150,-87.6701349439
Foodsmart,1474028,272175,13800,A,2901 W ARMITAGE AVE,60647,LOGAN SQUARE,22,35,17031222500,170312225001004,41.9173585451,-87.6993410687
Supermarket & Taqueria Caro,2014104,310507,4524,B,4937 W 47TH ST,60638,GARFIELD RIDGE,56,23,17031560300,170315603001003,41.8074608778,-87.7470605710
H & Z Grocery Store,3166,2823,10001,A,3638 W WRIGHTWOOD AVE,60647,LOGAN SQUARE,22,35,17031220702,170312207024010,41.9283452514,-87.7186708995
Seven Eleven,34710,14901,3000,B,1425 W MONTROSE AVE,60613,LAKE VIEW,6,47,17031060100,170310601001000,41.9615238247,-87.6660398556
Aldi Foods,13994,5273,15565,A,3835 W MADISON ST,60624,WEST GARFIELD PARK,26,28,17031260800,170312608001000,41.8806594115,-87.7221936689
Aldi Foods,1817904,5273,11179,A,6520 W FULLERTON AVE,60707,BELMONT CRAGIN,19,36,17031831500,170318315001045,41.9237604017,-87.7887477626
Loreto Grocery,76774,22681,4499,B,4600 S FAIRFIELD AVE,60632,BRIGHTON PARK,58,12,17031842800,170318428002005,41.8100014783,-87.6931813523
Lux 2 Food & Liquor,1869021,322813,2500,B,7550 S MAY ST,60620,AUBURN GRESHAM,71,17,17031710200,170317102004006,41.7561626996,-87.6528196032
Around The Clock,15860,6777,3000,B,1605 W HOWARD ST,60626,ROGERS PARK,1,49,17031010202,170310102021000,42.0192651821,-87.6715720734
County Fair Foods,37096,15344,10001,A,10800 S WESTERN AVE,60643,MORGAN PARK,75,19,17031750300,170317503001022,41.6972382088,-87.6814748042
Lawndale Food Market,39529,15829,6000,B,3705 W 16TH ST,60623,NORTH LAWNDALE,29,24,17031292200,170312922003000,41.8588339683,-87.7178671863
"Hyde Park Produce, Ltd",1884100,325993,10000,A,1226 E 53RD ST,60615,HYDE PARK,41,4,17031410700,170314107001003,41.7995768022,-87.5955129219
Khalil Food & Liquor,46846,16717,3000,B,146 W 103RD ST,60628,ROSELAND,49,9,17031490700,170314907002019,41.7072181390,-87.6277515583
Aldi Foods,13992,5273,15565,A,2828 N CENTRAL AVE,60634,BELMONT CRAGIN,19,31,17031190402,170311904022031,41.9321576791,-87.7664245988
Sunrise Food And Liquors,21927,9067,7000,B,3737 W CHICAGO AVE,60651,HUMBOLDT PARK,23,27,17031231500,170312315006001,41.8953147590,-87.7201998415
Boulevard Food & Liquor Llc,1931999,336958,3350,B,5922 W IRVING PARK RD,60634,PORTAGE PARK,15,38,17031150402,170311504022018,41.9531825896,-87.7752593753
Save-a-lot,1272454,216203,12000,A,2858 E 83RD ST,60617,SOUTH CHICAGO,46,7,17031460302,170314603024017,41.7447308395,-87.5540391375
Ada Foods,50473,56673,4500,B,1281 W 71ST ST,60636,WEST ENGLEWOOD,67,17,17031671800,170316718001000,41.7648941814,-87.6573078048
The Neighborhood Store,47617,16859,4200,B,8313 S RACINE AVE,60620,AUBURN GRESHAM,71,21,17031711000,170317110001007,41.7427877337,-87.6533842508
"S & K Food & Liquor, Inc.",1544,291,10001,A,7500 S EXCHANGE AVE,60649,SOUTH SHORE,43,7,17031431302,170314313022001,41.7589927618,-87.5603778108
Am-pm Food Mart & Cellular,1093813,207399,3500,B,1924 E 87TH ST,60617,AVALON PARK,45,8,17031450300,170314503003028,41.7371462539,-87.5770809934
Morelia Supermarket,1892862,243702,8000,B,7300 N WESTERN AVE,60645,WEST RIDGE,2,50,17031020200,170310202002007,42.0141839829,-87.6903783498
Whole Foods,2042094,5033,55129,A,5201 N SHERIDAN RD,60640,EDGEWATER,77,48,17031030706,170310307061008,41.9764816676,-87.6548397772
Walmart,2164075,303471,,A,1424 W 47TH ST,60609,NEW CITY,61,3,17031842600,170318000000000,41.8087682900,-87.6609882100
Aldi Foods,1743165,5273,16890,A,7545 S WESTERN AVE,60620,ASHBURN,70,18,17031700100,170317001002053,41.7560350910,-87.6828583216
Treasure Island Foods,1311,85291,10001,A,3460 N BROADWAY,60657,LAKE VIEW,6,44,17031062000,170310620002000,41.9448282656,-87.6458934884
Olive Mount Mart,1337266,205718,3000,B,3536 W 63RD ST,60629,CHICAGO LAWN,66,15,17031660400,170316604003014,41.7789401249,-87.7118685723
Jewel Food Store,1394,259,19238,A,5516 N CLARK ST,60640,EDGEWATER,77,40,17031030900,170310309001000,41.9821898846,-87.6686516280
Furteria El Serranito,2031979,352794,2500,B,1755 W 38TH ST,60609,MCKINLEY PARK,59,11,17031590700,170315907001015,41.8248606245,-87.6700230192
Peoria Packing Ltd,33970,14795,8000,B,1300 W LAKE ST,60607,NEAR WEST SIDE,28,27,17031833000,170318330002051,41.8855804200,-87.6589569108
Carniceria Jimenez,1693,85292,16000,A,4204 W NORTH AVE,60639,HUMBOLDT PARK,23,30,17031230500,170312306004000,41.9099252471,-87.7315572163
Extra Value Food & Liquor,1823321,319024,5000,B,6257 S ASHLAND AVE,60636,WEST ENGLEWOOD,67,16,17031670800,170316708002029,41.7796146658,-87.6640774893
Goldmore Food,34046,14804,2500,B,1949 W 51ST ST,60609,NEW CITY,61,16,17031611700,170316117003002,41.8011278091,-87.6740803441
Solid Gold,1490386,203033,3300,B,3821 W ROOSEVELT RD,60624,NORTH LAWNDALE,29,24,17031838700,170318387001005,41.8661194940,-87.7209275740
Food 4 Less,1596210,251246,62000,A,7030 S ASHLAND AVE,60636,WEST ENGLEWOOD,67,17,17031671500,170316715003031,41.7657907704,-87.6639668865
Clarendon Food Mart Inc,29515,11687,10000,A,4183 N CLARENDON AVE,60613,UPTOWN,3,46,17031031400,170310314003003,41.9580048015,-87.6496537356
Jewel Food Store,1144384,259,37641,A,443 E 34TH ST,60616,DOUGLAS,35,4,17031351000,170313510002003,41.8330447382,-87.6146113644
La Plama,22662,63389,15000,A,4173 S ARCHER AVE,60632,BRIGHTON PARK,58,14,17031580501,170315805012012,41.8175793077,-87.6983205863
Super Mas Market,1997806,347422,32000,A,1422 W 47TH ST,60609,NEW CITY,61,3,17031842600,170318426002060,41.8087654583,-87.6611701084
Carniceria El Porvenir,1768971,311076,2500,B,150 E KENSINGTON AVE,60628,WEST PULLMAN,53,9,17031530100,170315301001016,41.6840631980,-87.6187429679
Rj Liquors,1597198,292263,3550,B,5640 W FULLERTON AVE,60639,BELMONT CRAGIN,19,30,17031190602,170311906022035,41.9240644164,-87.7676604864
Jewel Food Store,1337,259,24922,A,4729 N CENTRAL AVE,60630,PORTAGE PARK,15,45,17031150300,170311503007003,41.9667971120,-87.7672994806
Prestige Liquors,1883995,325934,2900,B,7104 S WESTERN AVE,60636,CHICAGO LAWN,66,18,17031661000,170316610004000,41.7644955967,-87.6833842675
"Three Roosters, Inc.",1980803,345267,4830,B,12247 S HALSTED ST,60628,WEST PULLMAN,53,34,17031530501,170315305012020,41.6709717654,-87.6415330496
Buy -n- Save,62460,19735,8000,B,209 E 103RD ST,60628,ROSELAND,49,9,17031490902,170314909022003,41.7071353216,-87.6182417299
A & B Food Market Inc,43181,6483,10001,A,5057 W DIVISION ST,60651,AUSTIN,25,37,17031251100,170312511004000,41.9021664421,-87.7531823487
Jewel Food Store,1385,259,20285,A,3531 N BROADWAY,60657,LAKE VIEW,6,46,17031061800,170310618001000,41.9463846516,-87.6465248633
Mr G's Food & Liquor,1429,263,3000,B,332 E 58TH ST,60637,WASHINGTON PARK,40,20,17031400400,170314004002002,41.7894298575,-87.6178403398
Aldi Foods,14008,5273,16340,A,9017 S HALSTED ST,60620,AUBURN GRESHAM,71,21,17031711500,170317115002037,41.7302972736,-87.6433090924
Supermercado La Villa,1800261,313811,9000,B,5020 W FULLERTON AVE,60639,BELMONT CRAGIN,19,31,17031190800,170311908003018,41.9242727136,-87.7521150377
Cermak Produce,1574003,286531,14000,A,4401 W ARMITAGE AVE,60639,HERMOSA,20,31,17031831200,170318312002004,41.9169344398,-87.7363871475
Melissa's Food & Liquors Inc,29494,11681,3500,B,3867 W GRAND AVE,60651,HUMBOLDT PARK,23,27,17031230700,170312307003012,41.9050594546,-87.7239513845
La Merced Inc,6834,3685,10001,A,4335 W 26TH ST,60623,SOUTH LAWNDALE,30,22,17031301801,170313018012007,41.8440327965,-87.7324328647
J & A Oriental Food Mart,30859,8995,10001,A,5755 W FULLERTON AVE,60639,BELMONT CRAGIN,19,37,17031191302,170311913022003,41.9237993545,-87.7706332364
West Haven Market & Grill,17558,7111,3200,B,2132 W WASHINGTON BLVD,60612,NEAR WEST SIDE,28,2,17031837800,170318378002019,41.8831944724,-87.6804664902
Sahar International Supermarket,2079006,263556,7900,B,4851 N KEDZIE AVE,60625,ALBANY PARK,14,33,17031140100,170311401002004,41.9699575396,-87.7083728782
Walgreens,18619,7551,,A,5401 S WENTWORTH AVE,60609,FULLER PARK,37,3,17031835600,170318000000000,41.7962348800,-87.6304049200
"Park Packing Of Chicago, Inc.",2008956,340517,3500,B,1544 W 41ST ST,60609,NEW CITY,61,11,17031842600,170318426002022,41.8191594443,-87.6642353554
"R & S Discount Food, Wine, & Liquor",8647,4130,2800,B,2425 W DIVERSEY AVE,60647,LOGAN SQUARE,22,1,17031830900,170318309003001,41.9320468510,-87.6889786863
Cermak Produce,1649774,298958,10000,A,3435 S ARCHER AVE,60608,MCKINLEY PARK,59,11,17031840300,170318403002016,41.8313499001,-87.6758478479
National Fruit Stop,23627,9531,3000,B,3523 W LAWRENCE AVE,60625,ALBANY PARK,14,33,17031140701,170311407012002,41.9682556374,-87.7168773813
Whole Foods,41689,5033,72000,A,1763 W HOWARD ST,60626,ROGERS PARK,1,49,17031010202,170310102021001,42.0192885501,-87.6750585094
Jamaica Food & Liquor Inc,22679,9341,2500,B,4252 S COTTAGE GROVE AVE,60653,GRAND BOULEVARD,38,4,17031380100,170313801001032,41.8170297652,-87.6068579199
"Carniceria La Mejor Produce, Inc.",1800292,313836,4500,B,2915 N MILWAUKEE AVE,60618,AVONDALE,21,35,17031210602,170312106023005,41.9343143994,-87.7157719991
Whole Foods,76395,86298,30591,A,30 W HURON ST,60610,NEAR NORTH SIDE,8,42,17031081600,170310816002002,41.8949686732,-87.6293991787
Bari,1245246,246600,2500,B,1120 W GRAND AVE,60622,WEST TOWN,24,27,17031243500,170312435001021,41.8912101212,-87.6555602414
Jewel Food Store,1325,259,25490,A,4250 N LINCOLN AVE,60618,NORTH CENTER,5,47,17031050200,170310502002007,41.9591004330,-87.6823922417
Jolanta's International Deli,26376,10856,10001,A,5914 W HIGGINS AVE,60630,JEFFERSON PARK,11,45,17031110400,170311104003013,41.9727914969,-87.7763718583
El Milagro,43513,2718,5500,B,3048 W 26TH ST,60623,SOUTH LAWNDALE,30,12,17031300900,170313009001012,41.8446873274,-87.7021029360
Harvestime Foods,43697,16317,8750,B,2632 W LAWRENCE AVE,60625,LINCOLN SQUARE,4,40,17031040201,170310402013015,41.9686702259,-87.6951627475
Chicago Grocers,1332221,258200,2500,B,2122 W DEVON AVE,60659,WEST RIDGE,2,50,17031020500,170310205001013,41.9979458853,-87.6835687050
Noor Meat,61680,19506,3000,B,2505 W DEVON AVE,60659,WEST RIDGE,2,50,17031020802,170310208024002,41.9975738059,-87.6925485988
Trattoria Isabella,1842843,320408,3365,B,217 N JEFFERSON ST,60661,NEAR WEST SIDE,28,42,17031280100,170312801001026,41.8862936679,-87.6426439206
Dollar Deals & Up,1276566,252997,2500,B,2057 N PULASKI RD,60639,HERMOSA,20,30,17031200402,170312004021000,41.9188912639,-87.7264653150
Save-a-lot,2079232,216203,13000,A,148 W 79TH ST,60620,GREATER GRAND CROSSING,69,17,17031691200,170316912002015,41.7509837901,-87.6289614545
L'appetito,42672,16220,2900,B,875 N MICHIGAN AVE,60611,NEAR NORTH SIDE,8,42,17031081300,170310813003001,41.8989485417,-87.6239749877
"Tony's Finer Foods Enterprises, Inc.",1717867,305203,21000,A,3607 W FULLERTON AVE,60647,LOGAN SQUARE,22,35,17031220902,170312209022000,41.9244900940,-87.7172881310
Jewel Food Store,1356,259,22295,A,3940 E 106TH ST,60617,EAST SIDE,52,10,17031520400,170315204001013,41.7028060951,-87.5277040116
Save-a-lot,1272455,216203,12000,A,420 S PULASKI RD,60624,WEST GARFIELD PARK,26,24,17031260700,170312607002016,41.8745373122,-87.7255969017
Miceli's Deli & Food Mart,44924,16493,4000,B,2448 S OAKLEY AVE,60608,LOWER WEST SIDE,31,25,17031841300,170318413003008,41.8470204640,-87.6831995522
Whole Foods,41657,5033,10001,A,2101 E 71ST ST,60649,SOUTH SHORE,43,5,17031430600,170314306001008,41.7659900011,-87.5737873367
Ma's & Pa's Grocery Snack Shop,7302,3806,4500,B,804 S CALIFORNIA AVE,60612,EAST GARFIELD PARK,27,2,17031271800,170312718001017,41.8708776439,-87.6961668842
Jewel Food Store,1368,259,30745,A,87 W 87TH ST,60620,CHATHAM,44,21,17031842400,170318424002071,41.7361451282,-87.6269178440
Pete's Market,1243125,245519,45000,A,4700 S KEDZIE AVE,60632,BRIGHTON PARK,58,14,17031842800,170318428004023,41.8080472717,-87.7041188223
La Guerrerense,67114,43885,3000,B,4149 W ARMITAGE AVE,60639,HERMOSA,20,30,17031831200,170318312003003,41.9170000028,-87.7309892645
Louis' Groceries,2153429,372246,,A,7604 S COTTAGE GROVE AVE,60619,GREATER GRAND CROSSING,69,6,17031691400,170317000000000,41.7565503100,-87.6054828500
"Szymanski Bros, Inc",18082,86677,3000,B,6016 W IRVING RD,60634,PORTAGE PARK,15,38,17031150502,170311505022015,41.9531497374,-87.7775174877
Supermercado Guadalajara,3991,23651,6000,B,2300 S KEDZIE AVE,60623,SOUTH LAWNDALE,30,24,17031300800,170313008001012,41.8498575327,-87.7053434771
Jewel Food Store,1380,259,23660,A,4355 N SHERIDAN RD,60613,UPTOWN,3,46,17031032100,170310321001001,41.9613977799,-87.6545929748
Carniceria Del Rio,1801493,314238,3000,B,2714 W CERMAK RD,60608,SOUTH LAWNDALE,30,28,17031840700,170318407003012,41.8520347381,-87.6936969081
Fiesta Supermarcado,1196305,221943,14500,A,3307 W 63RD ST,60629,CHICAGO LAWN,66,15,17031660500,170316605001002,41.7788185771,-87.7059035755
Aldi Foods,13990,5273,16300,A,8333 S CICERO AVE,60652,ASHBURN,70,18,17031700302,170317003023005,41.7409110654,-87.7409228594
Wally's International Market,32288,14504,10001,A,3256 N MILWAUKEE AVE,60618,AVONDALE,21,31,17031831100,170318311003024,41.9401778125,-87.7258584348
Ziad Certified Foods,9046,4213,2500,B,513 E 47TH ST,60653,GRAND BOULEVARD,38,3,17031381200,170313812002015,41.8093228701,-87.6133355212
Supermercado El Cubano Inc,57265,6678,2750,B,4939 S ASHLAND AVE,60609,NEW CITY,61,20,17031611200,170316112002009,41.8037823230,-87.6646953279
Fairplay Finer Food,10949,86481,10001,A,4640 S HALSTED ST,60609,NEW CITY,61,11,17031842600,170318426002035,41.8096297680,-87.6457075651
Rite Price Food,1198136,222688,3600,B,5606 W DIVISION ST,60651,AUSTIN,25,29,17031250600,170312506002013,41.9022506897,-87.7659509238
Kamdar Plaza Inc,4429,3241,5500,B,2646 W DEVON AVE,60659,WEST RIDGE,2,50,17031020602,170310206023014,41.9977219015,-87.6966411029
J & J European Deli,21936,63361,3000,B,5960 W LAWRENCE AVE,60630,PORTAGE PARK,15,45,17031150401,170311504013000,41.9677648001,-87.7770202043
World Fresh Market,1492163,21515,5500,B,2434 W DEVON AVE,60659,WEST RIDGE,2,50,17031020602,170310206022013,41.9978179260,-87.6912518856
City Grocery,1979483,344633,5000,B,405 N WABASH AVE,60611,NEAR NORTH SIDE,8,42,17031081500,170310815003007,41.8894653288,-87.6265092736
P & I Food & Liquor Inc.,16647,6907,3000,B,4154 W DIVISION ST,60651,HUMBOLDT PARK,23,37,17031230600,170312306002011,41.9027068139,-87.7310180698
Danny's Fresh Market,1888080,326926,14405,A,2140 N WESTERN AVE,60647,LOGAN SQUARE,22,1,17031221500,170312215001018,41.9210962680,-87.6876710129
Pete's Market,36823,15303,10001,A,5724 S KEDZIE AVE,60629,GAGE PARK,63,14,17031630900,170316309001016,41.7891125480,-87.7035797266
"Tony's Finer Foods Enterprises, Inc.",1717568,305203,35000,A,2500 N CENTRAL AVE,60639,BELMONT CRAGIN,19,30,17031190602,170311906022019,41.9258928802,-87.7662048258
Happy Foods,1618656,294177,11500,A,6415 N CENTRAL AVE,60646,FOREST GLEN,12,45,17031120200,170311202002015,41.9978600139,-87.7634457986
Whole Foods,1820382,5033,54963,A,2021 W CHICAGO AVE,60622,WEST TOWN,24,1,17031243000,170312430001000,41.8957852296,-87.6779308926
Aldi Foods,1619769,5273,16370,A,1508 W 47TH ST,60609,NEW CITY,61,3,17031842600,170318426002057,41.8087413884,-87.6629116285
Awami Bazaar & Zabiha Meat,68226,20954,2500,B,2340 W DEVON AVE,60659,WEST RIDGE,2,50,17031020500,170310205002005,41.9978536894,-87.6890642657
Makola African Supermarket #2,2008279,279945,3500,B,4501 N SHERIDAN RD,60640,UPTOWN,3,46,17031031502,170310315022003,41.9636502775,-87.6546221904
Aldi Foods,1547427,5273,15154,A,3030 S KEDZIE AVE,60623,SOUTH LAWNDALE,30,12,17031840800,170318408002012,41.8381141517,-87.7049944648
Laxi Liquor,47780,11112,3200,B,6922 W GRAND AVE,60707,MONTCLARE,18,36,17031831600,170318316002012,41.9236807003,-87.7986761286
"Eddie's Sunshine Food & Liquor,  Inc.",24217,63476,3000,B,10806 S MICHIGAN AVE,60628,ROSELAND,49,9,17031490901,170314909012011,41.6978179235,-87.6210110036
"Super Dollar And Up 4, Inc.",1597521,291475,4000,B,1604 W 59TH ST,60636,WEST ENGLEWOOD,67,15,670300,170316703001011,41.7868526305,-87.6646155793
Central Park Foods Inc,13813,6373,8000,B,3604 W GRAND AVE,60651,HUMBOLDT PARK,23,26,17031231200,170312312001000,41.9024736738,-87.7168174653
New La Estrella Foods Inc.,2003267,348383,5800,B,3003 W 63RD ST,60629,CHICAGO LAWN,66,15,17031660600,170316606005000,41.7789315569,-87.6984170935
Steve Food & Liquor,47965,11529,3500,B,6058 S RACINE AVE,60636,WEST ENGLEWOOD,67,16,17031670900,170316709001004,41.7833341838,-87.6547432794
"Krakus Deli,  Inc",1222467,229704,3500,B,5155 W ADDISON ST,60641,PORTAGE PARK,15,38,17031151001,170311510011000,41.9458951009,-87.7566458523
Mlb Food,1884977,326392,2500,B,613 E 67TH ST,60637,WOODLAWN,42,20,17031421200,170314212001005,41.7729559039,-87.6100578109
Aldi Foods,1975886,5273,18600,A,3320 W BELMONT AVE,60618,AVONDALE,21,35,17031831100,170318311001026,41.9394051879,-87.7109005918
Berbate Fruit Market,1646036,296646,2500,B,3956 N NARRAGANSETT AVE,60634,DUNNING,17,38,17031170300,170311703001000,41.9527315616,-87.7866984426
Hegewisch Fruit Market Inc.,2020869,350864,7800,B,13209 S BALTIMORE AVE,60633,HEGEWISCH,55,10,17031550100,170315501006033,41.6551885903,-87.5469994185
Fresh Buy Foods Inc,23640,9535,26000,A,6319 S VERNON AVE,60637,WOODLAWN,42,20,17031420700,170314207005004,41.7796646515,-87.6142509361
Gaytan Grocery Store,85044,81586,3500,B,2802 S KOLIN AVE,60623,SOUTH LAWNDALE,30,22,17031301801,170313018011003,41.8403086304,-87.7331070590
Northwest Food & Liquor,1119636,209419,3180,B,5170 W NORTH AVE,60639,AUSTIN,25,37,17031250200,170312502001025,41.9096148952,-87.7554779679
Tai Wah Grocery,28038,63654,3200,B,2226 S WENTWORTH AVE,60616,ARMOUR SQUARE,34,25,17031841100,170318411004018,41.8521271977,-87.6321439957
Aldi Foods,1922075,5273,16615,A,6621 S COTTAGE GROVE AVE,60637,WOODLAWN,42,5,17031420800,170314208002008,41.7743058812,-87.6056480253
"Rich's Deli & Liquor, Inc",16735,6920,3400,B,857 N WESTERN AVE,60622,WEST TOWN,24,32,17031242400,170312424002016,41.8974609845,-87.6867385577
Walgreens,1248924,147,,A,6016 W 63RD ST,60638,CLEARING,64,23,17031640300,170316000000000,41.7779581600,-87.7722942000
Treasure Island Foods,1319,85291,10001,A,680 N LAKE SHORE DR,60611,NEAR NORTH SIDE,8,42,17031081401,170310814012011,41.8947983703,-87.6158666457
Discount Meat Company,13820,6377,4160,B,339 W 79TH ST,60620,CHATHAM,44,17,17031842400,170318424002003,41.7506874405,-87.6333809292
Oriental Asia Market Inc.,1903198,330517,7500,B,4932 N SHERIDAN RD,60640,UPTOWN,3,46,17031031200,170310312004004,41.9725559281,-87.6550576698
Viet Hoa Plaza,10540,85532,6174,B,1051 W ARGYLE ST,60640,UPTOWN,3,48,17031031200,170310312002000,41.9731740098,-87.6569923349
Polonia Food Mart,6455,3630,10001,A,1956 W ARMITAGE AVE,60622,LOGAN SQUARE,22,32,17031832300,170318323001065,41.9178707156,-87.6774806152
Aldi Foods,14002,5273,15540,A,4501 S PULASKI RD,60632,ARCHER HEIGHTS,57,14,17031570100,170315701001024,41.8114515422,-87.7235746544
One Stop,2032029,352811,2500,B,4401 W MADISON ST,60624,WEST GARFIELD PARK,26,28,17031260500,170312605001000,41.8804994508,-87.7355959610
El Barrio Grocery,42681,16221,10001,A,3938 W NORTH AVE,60647,HUMBOLDT PARK,23,30,17031230400,170312307004007,41.9100080401,-87.7254384633
Aaray Grocery,1900,62541,10001,A,2601 N HALSTED ST,60614,LINCOLN PARK,7,43,17031070200,170310702001009,41.9292098170,-87.6487462650
Broadway Supermarket,50737,17352,15000,A,4879 N BROADWAY,60640,UPTOWN,3,48,17031031200,170310312002005,41.9711711808,-87.6595809750
Foodsmart,46295,16644,3500,B,3415 W DIVERSEY AVE,60647,LOGAN SQUARE,22,35,17031220602,170312206025000,41.9318527752,-87.7129012497
Safah Food & Liquor Inc,14103,6462,3000,B,7105 S RACINE AVE,60636,ENGLEWOOD,68,17,17031681400,170316814002001,41.7648964002,-87.6539648335
Morgan Food Corp Llc,1270949,250439,3500,B,6600 S MORGAN ST,60621,ENGLEWOOD,68,17,17031681000,170316810003009,41.7741289538,-87.6496459973
The Produce Center,44723,16464,12000,A,5820 N MILWAUKEE AVE,60646,NORWOOD PARK,10,45,17031100100,170311001002047,41.9872696368,-87.7785157048
Whole Foods,2042084,5033,48735,A,5233 N LINCOLN AVE,60625,LINCOLN SQUARE,4,40,17031040202,170310402022002,41.9768950984,-87.6922796678
Walgreens,18468,147,,A,4005 W 26TH ST,60623,SOUTH LAWNDALE,30,22,17031301802,170313000000000,41.8441446900,-87.7247782500
Aldi Foods,14010,5273,10001,A,6025 S WESTERN AVE,60636,CHICAGO LAWN,66,16,17031835000,170318350001001,41.7839658423,-87.6836233778
Joe's Food And Liquor Depot,1575140,286898,4000,B,5834 W FULLERTON AVE,60639,BELMONT CRAGIN,19,30,17031190602,170311906023021,41.9239918266,-87.7722891067
Treasure Island Foods,1315,85291,10001,A,2121 N CLYBOURN AVE,60614,LINCOLN PARK,7,43,17031832500,170318325002021,41.9198996840,-87.6618055364
Jewel Food Store,1392,259,29421,A,7342 W FOSTER AVE,60656,NORWOOD PARK,10,41,17031100500,170311005002003,41.9745429477,-87.8113468842
Three R Food,1943396,339315,3000,B,2712 W MONTROSE AVE,60618,ALBANY PARK,14,33,17031140800,170311408002016,41.9613709450,-87.6966693474
Cermak Produce,1476657,273150,15000,A,1711 W CERMAK RD,60608,LOWER WEST SIDE,31,25,17031843200,170318432002043,41.8521678636,-87.6689750407
Puerto Rico Food & Liquors,2033049,353309,2500,B,2559 W AUGUSTA BLVD,60622,WEST TOWN,24,26,17031242500,170312425002002,41.8992215766,-87.6917381162
Carniceria La Azteca,1354069,262231,2500,B,7067 N CLARK ST,60626,ROGERS PARK,1,49,17031010702,170310107021002,42.0109629527,-87.6742146577
Whole Foods,1678048,86298,19740,A,3640 N HALSTED ST,60613,LAKE VIEW,6,44,17031061000,170310610001009,41.9485198030,-87.6496701249
Hong Kong Market,1892499,64229,46300,A,520 W 24TH PL,60616,ARMOUR SQUARE,34,25,17031841100,170318411003017,41.8482371659,-87.6409555275
Walgreens,18551,147,,A,6330 S DR MARTIN LUTHER KING JR DR,60637,GREATER GRAND CROSSING,69,20,17031842500,170318000000000,41.7792976100,-87.6157498800
Jewel Food Store,1000572,259,31951,A,7530 S STONY ISLAND AVE,60649,SOUTH SHORE,43,5,17031834200,170318342004016,41.7578056585,-87.5862682580
Cermak Produce,69608,21223,17000,A,2701 W NORTH AVE,60647,WEST TOWN,24,26,17031241000,170312410002000,41.9101322404,-87.6946003939
Rainbow Finer Food & Liquor,9138,4236,3500,B,6316 S ASHLAND AVE,60636,WEST ENGLEWOOD,67,16,17031671200,170316712001000,41.7789224055,-87.6643526811
Munchies On Larrabee,2073925,210118,2500,B,1012 N LARRABEE ST,60610,NEAR NORTH SIDE,8,27,17031842200,170318422001074,41.9008485875,-87.6432555365
Aldi Foods,14011,5273,37000,A,2333 E 95TH ST,60617,SOUTH DEERING,51,7,17031510300,170315103001005,41.7224662420,-87.5666730521
Mi Mexico Grocery,1494240,277614,2600,B,2601 W 59TH ST,60629,CHICAGO LAWN,66,16,17031835000,170318350005001,41.7863763432,-87.6887765140
Aldi Foods,14000,5273,14860,A,4030 W WRIGHTWOOD AVE,60639,LOGAN SQUARE,22,31,17031220702,170312207022005,41.9282078544,-87.7281585580
Key Food Liquor,17551,7109,3800,B,13355 S INDIANA AVE,60827,RIVERDALE,54,9,17031540101,170315401012014,41.6519728186,-87.6170837363
Europa Galleria Inc,1299537,253902,6500,B,340 W SUPERIOR ST,60610,NEAR NORTH SIDE,8,42,17031081800,170310818002018,41.8956627719,-87.6372207150
Personal Liquors Inc,8913,4189,6000,B,4241 W MADISON ST,60624,WEST GARFIELD PARK,26,28,17031260600,170312606001000,41.8805391992,-87.7322160373
Save-a-lot,1222884,216203,12000,A,5555 W NORTH AVE,60639,AUSTIN,25,37,17031250700,170312507004001,41.9092745667,-87.7651877850
Gilmart's  Food & Liquor,22715,9350,10001,A,5044 S ARCHER AVE,60632,ARCHER HEIGHTS,57,14,17031570300,170315703002016,41.8014000331,-87.7260437419
Anar Inc,31219,14297,10001,A,935 E 79TH ST,60619,CHATHAM,44,8,17031440101,170314401011006,41.7512179339,-87.6014014102
Clybourn Market,40522,15968,3500,B,2807 N CLYBOURN AVE,60618,NORTH CENTER,5,1,17031051400,170310514002008,41.9325791837,-87.6783274560
Serrelli's Foods,6981,62794,4000,B,6454 W NORTH AVE,60707,AUSTIN,25,36,17031250500,170312505002029,41.9092298950,-87.7871288207
Food 4 Less,1928152,251246,63506,A,112 W 87TH ST,60620,CHATHAM,44,21,17031842400,170318424002040,41.7363800456,-87.6275092190
Whole Foods,41678,5033,68000,A,424 W DIVISION ST,60610,NEAR NORTH SIDE,8,27,17031080400,170310804002003,41.9038839611,-87.6394372016
Super Jim's,37540,33441,4500,B,5147 W DIVISION ST,60651,AUSTIN,25,37,17031251100,170312511004002,41.9021472222,-87.7552393884
Aldi Foods,13988,5273,12500,A,800 N KEDZIE AVE,60651,HUMBOLDT PARK,23,27,17031836600,170318366001013,41.8956153135,-87.7067053251
A & G Liquors,44373,35423,4800,B,6945 S STATE ST,60637,GREATER GRAND CROSSING,69,6,17031690400,170316904003005,41.7678312792,-87.6247659397
Busy Bee Supermarket,1974525,343785,2500,B,5659 S ASHLAND AVE,60636,WEST ENGLEWOOD,67,16,17031670200,170316702001016,41.7904800194,-87.6643450657
Luciano's Grocery-18th St,1380524,265429,6000,B,1714 W 18TH ST,60608,LOWER WEST SIDE,31,25,17031310800,170313108001010,41.8578565675,-87.6694195956
Crespo's Food Mart,40132,15902,2800,B,4353 W MADISON ST,60624,WEST GARFIELD PARK,26,28,17031260600,170312606001001,41.8805049950,-87.7351228503
Armitage Produce Inc,1771323,4469,14340,A,2007 N KIMBALL AVE,60647,LOGAN SQUARE,22,35,17031221100,170312211002029,41.9175624189,-87.7117551087
Rodriguez Fruits & Vegetable,18231,7487,2626,B,2458 S ST LOUIS AVE,60623,SOUTH LAWNDALE,30,22,17031300700,170313007003004,41.8463298609,-87.7125513997
Jewel Food Store,1226337,259,31600,A,550 N STATE ST,60610,NEAR NORTH SIDE,8,42,17031081600,170310816001003,41.8924213661,-87.6282348711
Jewel Food Store,1225534,259,49513,A,6107 S ARCHER AVE,60638,GARFIELD RIDGE,56,23,17031560800,170315608002027,41.7943548532,-87.7705271521
Supermercado La Chiqutia # 4,49303,89325,10001,A,2623 S PULASKI RD,60623,SOUTH LAWNDALE,30,22,17031301701,170313017013005,41.8435348913,-87.7243821794
International Supermarket Inc,16712,6917,7500,B,4556 S ASHLAND AVE,60609,NEW CITY,61,3,17031610400,170316104001000,41.8105656774,-87.6651705169
West Lawn Foods,1591726,289367,17000,A,5838 S PULASKI RD,60629,WEST ELSDON,62,13,17031620300,170316203002019,41.7866084095,-87.7231300289
"La Nueva Imagen Grocery, Inc.",1804216,315282,3000,B,2459 S MILLARD AVE,60623,SOUTH LAWNDALE,30,22,17031300600,170313006002001,41.8462971046,-87.7159164295
S & T Provision Co Inc,12173,6018,10001,A,3804 W 111TH ST,60655,MOUNT GREENWOOD,74,19,17031740300,170317403001022,41.6914459103,-87.7156731039
Parkshore Market Ltd,26464,10858,2860,B,195 N HARBOR DR,60601,LOOP,32,42,17031320100,170313201004007,41.8861772806,-87.6155996011
Carniceria Guanajuato,2069477,358374,9325,B,5250 W FULLERTON AVE,60639,BELMONT CRAGIN,19,31,17031190702,170311907023020,41.9241891458,-87.7582297412
Jardan Food & Liquor,11226,5270,9500,B,317 E GARFIELD BLVD,60637,WASHINGTON PARK,40,3,17031400400,170314004001003,41.7943249341,-87.6185206053
Los Cuatro Hermanos Grocery,7790,62837,10001,A,1858 S ALLPORT ST,60608,LOWER WEST SIDE,31,25,17031310600,170313106002002,41.8562022212,-87.6577449724
Eddy's Food Mart,1879269,324962,4000,B,7575 N ROGERS AVE,60626,ROGERS PARK,1,49,17031010300,170310103002005,42.0191646250,-87.6683972880
Mayfair Market Place,1948869,340165,12000,A,4728 N PULASKI RD,60630,ALBANY PARK,14,39,140500,170311405001000,41.9672666701,-87.7281470478
The Unit,2021618,351168,3500,B,2523 E 75TH ST,60649,SOUTH SHORE,43,7,17031431302,170314313022003,41.7589223174,-87.5628760391
Moroleon Foods #2 Inc.,1801622,314329,3025,B,4257 S ROCKWELL ST,60632,BRIGHTON PARK,58,12,17031580700,170315807003005,41.8157711158,-87.6893858973
Supermercado Guadalajara,2042000,354339,3800,B,3100 W CERMAK RD,60623,SOUTH LAWNDALE,30,24,17031841700,170318417001009,41.8519083675,-87.7028759890
Stop & Go Food Mart,26776,11123,3250,B,1622 W MONTEREY AVE,60643,MORGAN PARK,75,34,17031750600,170317506004009,41.6895747692,-87.6627231456
Aldi Foods,13996,5273,19410,A,620 W 63RD ST,60621,ENGLEWOOD,68,16,17031680900,170316809004003,41.7799200473,-87.6409255107
First Choice Market,1969290,342952,10000,A,3019 E 91ST ST,60617,SOUTH CHICAGO,46,10,17031461000,170314610001014,41.7299778712,-87.5503825944
Kordian's Market,28114,11448,4610,B,6332 W HIGGINS AVE,60630,JEFFERSON PARK,11,45,17031110300,170311103002023,41.9759840467,-87.7865613104
Whole Foods,41682,5033,26819,A,959 W FULLERTON AVE,60614,LINCOLN PARK,7,43,17031071100,170310711002000,41.9252682757,-87.6534875641
Aldi Foods,13978,5273,14000,A,5001 N PULASKI RD,60630,ALBANY PARK,14,39,17031140302,170311403023005,41.9719812207,-87.7279868979
All Star Food & Liquor,1922124,319069,4200,B,2911 S ARCHER AVE,60608,BRIDGEPORT,60,11,17031600700,170316007001000,41.8414840391,-87.6580219776
Shop Wise Food,1334440,259101,6000,B,316 W 103RD ST,60628,ROSELAND,49,9,17031490700,170314907003028,41.7071739515,-87.6314024214
"H & A Food Market, Inc.",1379268,217567,2500,B,1007 W 63RD ST,60621,ENGLEWOOD,68,16,17031681000,170316810004004,41.7795645849,-87.6499748357
Gemelos Food/ Check Cashing Services,1045757,203580,6600,B,4300 S MOZART ST,60632,BRIGHTON PARK,58,14,17031580502,170315805023027,41.8154320010,-87.6957977900
Aldi Foods,1975885,5273,16924,A,1840 N CLYBOURN AVE,60614,LINCOLN PARK,7,32,17031832600,170318326002019,41.9144237141,-87.6546278430
Superior Nut & Candy  Co.I Inc.,1122087,26728,10005,A,1111 W 40TH ST,60609,NEW CITY,61,11,17031842600,170318426002016,41.8209574940,-87.6537783218
La Perla Tapatia Bakery,1698,85292,3000,B,4214 W NORTH AVE,60639,HUMBOLDT PARK,23,30,17031230500,170312306004000,41.9099197540,-87.7319712570
"Rio Grande Fruit Market, Inc.",1042285,201574,3750,B,3501 W NORTH AVE,60647,HUMBOLDT PARK,23,26,17031230800,170312308001000,41.9099107051,-87.7143855102
Miara's Cont'l Pastry Deli Inc,10400,4623,5000,B,7051 W ADDISON ST,60634,DUNNING,17,36,17031171000,170311710005004,41.9452338231,-87.8029266385
J And P Finer Foods,1567,299,4500,B,3501 W MONTROSE AVE,60618,IRVING PARK,16,33,17031160501,170311605012002,41.9609885935,-87.7156463163
Neil's Food,1998505,221849,3500,B,7749 S HALSTED ST,60620,AUBURN GRESHAM,71,17,17031710100,170317101001007,41.7528304183,-87.6439505248
Chicago Food Corp,1169745,11429,10000,A,5800 N PULASKI RD,60646,NORTH PARK,13,39,17031130200,170311302001009,41.9859279924,-87.7286634185
Jewel Food Store,1323,259,25356,A,5343 N BROADWAY,60640,EDGEWATER,77,48,17031030703,170310307031001,41.9794282549,-87.6598058547
Jewel Food Store,1382,259,24815,A,3570 N ELSTON AVE,60618,AVONDALE,21,35,17031831100,170318311001001,41.9460576040,-87.7082301098
5659 W. Diversey,1575023,277375,4000,B,5659 W DIVERSEY AVE,60639,BELMONT CRAGIN,19,30,17031190602,170311906022001,41.9311354035,-87.7686121306
Macias Produce Inc.,1648017,297549,7000,B,8933 S COMMERCIAL AVE,60617,SOUTH CHICAGO,46,10,17031833900,170318339001015,41.7327335949,-87.5511727836
Dililah Grocery,1986580,346168,3125,B,1759 W 21ST ST,60608,LOWER WEST SIDE,31,25,17031310800,170313108003012,41.8539678804,-87.6708701882
Whole Foods,41617,5033,10001,A,2550 N CLYBOURN AVE,60614,LINCOLN PARK,7,32,17031070700,170310707002005,41.9278717231,-87.6732588146
Outlet Kingdom,2054475,356046,4000,B,3449 S HALSTED ST,60608,BRIDGEPORT,60,11,17031839700,170318397002011,41.8310749437,-87.6459711122
La International,57700,18542,3000,B,4301 S ARCHER AVE,60632,BRIGHTON PARK,58,14,17031580502,170315805021004,41.8153006937,-87.7020416008
Pete's Market,1448266,271341,10000,A,1411 W 87TH ST,60620,AUBURN GRESHAM,71,21,17031711400,170317114001001,41.7357448514,-87.6587177057
"Calma Optimal Deli, Inc.",1991322,346718,3000,B,5155 W ADDISON ST,60641,PORTAGE PARK,15,38,17031151001,170311510011000,41.9458951009,-87.7566458523
Harbor Market,44759,16473,4200,B,155 N HARBOR DR,60601,LOOP,32,42,17031320100,170313201004020,41.8847505385,-87.6156039565
"Sweqi Food Mart, Inc.",2055024,356315,2600,B,4100 W NORTH AVE,60639,HUMBOLDT PARK,23,30,17031230500,170312306001001,41.9099608832,-87.7288749604
Wally's Market Inc,72825,21938,33000,A,6601 W IRVING PARK RD,60634,DUNNING,17,38,17031170300,170311703001003,41.9527216579,-87.7913622126
Saveway Food,1594450,290756,3000,B,313 E 43RD ST,60653,GRAND BOULEVARD,38,3,17031835800,170318358001004,41.8164863247,-87.6191968314
Carniceria&fruteria El Mitote,49322,17160,4500,B,4459 W BELMONT AVE,60641,HERMOSA,20,31,17031200100,170312001003000,41.9388195147,-87.7394338028
Lemen Sun Corp.,28022,11427,3600,B,2832 S WENTWORTH AVE,60616,ARMOUR SQUARE,34,11,17031340400,170313404001020,41.8416044818,-87.6319155034
Super Dollar Discount,2032403,353027,3500,B,4801 S ASHLAND AVE,60609,NEW CITY,61,20,17031611200,170316112002007,41.8066939242,-87.6647716526
Save-a-lot,1353496,216203,14800,A,4701 S COTTAGE GROVE AVE,60615,KENWOOD,39,4,17031390400,170313904002002,41.8094892465,-87.6064174294
Treasure Island Foods,1307,85291,10001,A,1639 N WELLS ST,60614,LINCOLN PARK,7,43,17031071500,170310715005003,41.9123117952,-87.6345988555
"Ogies Food, Inc",26972,11210,10001,A,2600 W LITHUANIAN PLAZA CT,60629,CHICAGO LAWN,66,15,17031660900,170316609003018,41.7683658358,-87.6883009077
Supermercado El Guero #10 Inc,39978,10046,10001,A,4023 S ARCHER AVE,60632,BRIGHTON PARK,58,12,17031580600,170315806002005,41.8205830407,-87.6934261660
Trader Joe's,1991799,211718,15000,A,3745 N LINCOLN AVE,60613,NORTH CENTER,5,47,17031050600,170310506002002,41.9499611711,-87.6756711293
Whole Foods,1969836,5033,59488,A,6623 N DAMEN AVE,60645,WEST RIDGE,2,50,17031020500,170310205003006,42.0022233751,-87.6801288280
Aldi Foods,1743166,5273,16890,A,7333 S STATE ST,60619,GREATER GRAND CROSSING,69,6,17031691000,170316910003005,41.7608808720,-87.6246657846
Aldi Foods,1959623,5273,15680,A,6221 N BROADWAY,60660,EDGEWATER,77,49,17031030103,170310301031003,41.9952114602,-87.6602779929
Fairplay Foods Inc,10947,86481,18500,A,2323 W 111TH ST,60643,MORGAN PARK,75,19,17031750500,170317505001002,41.6916792040,-87.6797791725
Hilltop Liquors Mart,788,148,3200,B,10259 S MICHIGAN AVE,60628,ROSELAND,49,9,17031490800,170314908005007,41.7072479748,-87.6200563640
Big Apple Finer Foods Inc,4900,3297,9000,B,2345 N CLARK ST,60614,LINCOLN PARK,7,43,17031071400,170310714003003,41.9249661791,-87.6399260190
Avenue Food Mar Inc,1246771,20727,18000,A,6850 W BELMONT AVE,60634,DUNNING,17,36,17031171000,170311710003022,41.9382373760,-87.7977603483
Fresh Farms International,30144,12018,9500,B,2626 W DEVON AVE,60659,WEST RIDGE,2,50,17031020602,170310206023013,41.9977359091,-87.6959288805
Lake View Foods Inc,2055,408,3100,B,4106 N SHERIDAN RD,60613,UPTOWN,3,46,17031032100,170310321003005,41.9570402995,-87.6547628922
The Cellar,1574603,286737,5000,B,3106 N HARLEM AVE,60634,DUNNING,17,36,17031170900,170311709001018,41.9366131328,-87.8068475211
Mariano's Fresh Market #8507,2163771,360006,,A,5353 N ELSTON AVE,60630,JEFFERSON PARK,11,45,17031110100,170311000000000,41.9787102600,-87.7571537700
Rainbow Grocery,61801,19562,2500,B,2003 W 69TH ST,60636,WEST ENGLEWOOD,67,17,17031671500,170316715002005,41.7683283348,-87.6738193840
"Carniceria La Hacienda, Inc.",1492826,276948,4000,B,3459 W 59TH ST,60629,CHICAGO LAWN,66,16,17031660400,170316604004000,41.7860244010,-87.7106047774
Cicero Deli Inc.,20884,8639,3600,B,3206 N CICERO AVE,60641,PORTAGE PARK,15,30,17031151002,170311510024009,41.9390466700,-87.7470219655
K Buena,1999075,65396,3500,B,4322 W MARQUETTE RD,60629,WEST LAWN,65,13,17031650301,170316503012017,41.7713833198,-87.7309533689
Jewel Food Store,1333,259,23845,A,1210 N CLARK ST,60610,NEAR NORTH SIDE,8,42,17031080202,170310802021001,41.9042652283,-87.6316032946
Nancy Foods Inc,79959,23327,2500,B,12315 S STATE ST,60628,WEST PULLMAN,53,9,17031530600,170315306002026,41.6702523999,-87.6222719562
Windy City Inc,24289,9833,4225,B,324 S CICERO AVE,60644,AUSTIN,25,24,17031252202,170312522025003,41.8759443554,-87.7452502275
One Stop Food & Liquor Store,1094,205,58000,A,4301 S LAKE PARK AVE,60653,KENWOOD,39,4,17031390100,170313901001006,41.8168651481,-87.5986888442
D & A Food & Liquor,46444,7945,5500,B,1601 W GARFIELD BLVD,60636,WEST ENGLEWOOD,67,15,17031670300,170316703002005,41.7935543630,-87.6646375512
Ultra Foods,1741082,308026,87600,A,3250 W 87TH ST,60652,ASHBURN,70,18,17031700402,170317004023025,41.7352740895,-87.7035112835
Pete's Market,1771242,312119,75000,A,2526 W CERMAK RD,60608,SOUTH LAWNDALE,30,28,17031840700,170318407003019,41.8521006532,-87.6890511106
Carniceria Guanajuato,2060960,357299,9000,B,3132 N CALIFORNIA AVE,60618,AVONDALE,21,33,17031210800,170312108001001,41.9385697153,-87.6979459455
Mini Mercado La Betania,33473,3205,2640,B,2800 S TRIPP AVE,60623,SOUTH LAWNDALE,30,22,17031301803,170313018033002,41.8403965367,-87.7306750125
Jerusalem Liquors,440,80,4500,B,3133 W LAWRENCE AVE,60625,ALBANY PARK,14,33,17031140800,170311408005007,41.9683547002,-87.7073943249
Walgreens,1144217,147,,A,2924 E 92ND ST,60617,SOUTH CHICAGO,46,7,17031461000,170315000000000,41.7283365400,-87.5528602400
Jewel Food Store,1388,259,20860,A,3128 W 103RD ST,60655,MOUNT GREENWOOD,74,19,17031740100,170317401001002,41.7063128446,-87.6997671192
Walgreens,1959845,7551,,A,1627 N PULASKI RD,60639,HUMBOLDT PARK,23,30,17031230400,170312000000000,41.9107144800,-87.7262104200
Tierra Caliente Market,1769425,311388,3125,B,1402 N ASHLAND AVE,60622,WEST TOWN,24,1,17031241500,170312415002014,41.9071018181,-87.6677396553
Quality Food On 71 St Inc,76481,22614,3000,B,2557 W 71ST ST,60629,CHICAGO LAWN,66,18,17031661000,170316610004004,41.7645116769,-87.6879866550
Jewel Food Store,1402,259,25431,A,3644 S ARCHER AVE,60609,MCKINLEY PARK,59,11,17031590500,170315905001037,41.8275838968,-87.6824544425
Cermak Produce,1770942,311980,17000,A,3311 W 26TH ST,60623,SOUTH LAWNDALE,30,22,17031840800,170318408001003,41.8443667287,-87.7078980538
