CensusTract,SourceTypeID,SourceType,ChainID,FoodSourceID,FoodSourceName,Address,SQUARE FEET,ZIP CODE,LATITUDE,LONGITUDE
17031839800,2,Farmer Market,N/A,50,Bridgeport Farmer Market,"600 W 35th St,  Chicago, IL, 60616",Null,60609,41.8307,-87.6414
17031410900,2,Farmer Market,N/A,51,Hyde Park Farmer Market,"5301 S Hyde Park Blvd,  Chicago, IL, 60615",Null,60615,41.79995,-87.5837
17031836800,2,Farmer Market,N/A,52,West Garfield Park Farmer Market,"300 N Central Park Ave,  Chicago, IL, 60624",Null,60624,41.88532,-87.7177
17031839100,2,Farmer Market,N/A,53,Loop Farmer Market,"233 S WACKER DR, CHICAGO, IL, 60606",Null,60606,41.87734,-87.6366
17031831400,2,Farmer Market,N/A,54,Austin Farmer Market,"601 S Central Ave,  Chicago, IL, 60644",Null,60644,41.87264,-87.765
17031831400,2,Farmer Market,N/A,55,Beverly Farmer Market,"1838 W 95th St,  Chicago, IL, 60643",Null,60643,41.72112,-87.6691
17031071800,2,Farmer Market,N/A,56,Lincoln Park Farmer Market,"705 W Armitage Ave,  Chicago, IL, 60614",Null,60614,41.91821,-87.6461
17031251400,2,Farmer Market,N/A,57,Austin Farmer Market,"5610 W Lake St,  Chicago, IL, 60644",Null,60644,41.88784,-87.7653
17031081000,2,Farmer Market,N/A,58,Lincoln Park Farmer Market,"39 W Division St,  Chicago, IL, 60610",Null,60610,41.90392,-87.63
17031431400,2,Farmer Market,N/A,59,South Shore Farmer Market,"7844S S Farragut Dr,  Chicago, IL, 60649",Null,60649,41.75881,-87.5497
17031839100,2,Farmer Market,N/A,60,Loop Farmer Market,"33 N Dearborn St,  Chicago, IL, 60602",Null,60602,41.88346,-87.63
17031060400,2,Farmer Market,N/A,61,Lake View Farmer Market,"1411 W Grace St, Chicago, IL 60613",Null,60613,41.95076,-87.6647
17031031400,2,Farmer Market,N/A,62,Uptown Farmer Market,"4646 N Marine Dr,  Chicago, IL, 60640",Null,60640,41.97258,-87.6595
17031839000,2,Farmer Market,N/A,63,Near South Side Farmer Market,"W Polk St & S Dearborn St,  Chicago, IL, 60605",Null,60605,41.87228,-87.6291
17031040600,2,Farmer Market,N/A,64,Lincoln Square Farmer Market,"4715 N Western Ave,  Chicago, IL, 60625",Null,60625,41.96648,-87.6887
17031839100,2,Farmer Market,N/A,65,Loop Farmer Market,"140 S Dearborn St,  Chicago, IL, 60603",Null,60604,41.87912,-87.6296
17031220500,2,Farmer Market,N/A,66,Logan Square Farmer Market,"3107 W Logan Blvd,  Chicago, IL, 60647",Null,60647,41.92841,-87.7054
17031231500,2,Farmer Market,N/A,67,Humboldt Park Farmer Market,"3613 W Chicago Ave, Chicago, IL 60651",Null,60651,41.89528,-87.7166
17031050100,2,Farmer Market,N/A,68,North Center Farmer Market,"4057 N Damen Ave,  Chicago, IL, 60618",Null,60618,41.95598,-87.6791
17031020601,2,Farmer Market,N/A,69,West Ridge Farmer Market,"2720 W Devon,  Chicago, IL, 60659",Null,60659,41.99781,-87.6974
17031081401,2,Farmer Market,N/A,70,Near North Side Farmer Market,"225 E Chicago Ave,  Chicago, IL, 60611",Null,60611,41.89677,-87.6218
17031250800,2,Farmer Market,N/A,71,Austin Farmer Market,"1333 N Laramie Ave,  Chicago, IL, 60651",Null,60651,41.90505,-87.7556
17031500300,2,Farmer Market,N/A,72,Pullman Farmer Market,"11141 S Cottage Grove Ave,  Chicago, IL, 60628",Null,60628,41.69182,-87.6101
17031241400,2,Farmer Market,N/A,73,West Town Farmer Market,"1520 N Damen Ave,  Chicago, IL, 60622",Null,60647,41.91049,-87.6774
17031840400,3,Urban Farm,N/A,74,Iron Street Farm," 3333 S Iron St,  Chicago, IL, 60608",Null,60608,41.83322,-87.661
17031081800,3,Urban Farm,N/A,75,Near North Side urban farm,"412 W CHICAGO AVE,  CHICAGO, IL, 60654",Null,60654,41.89662,-87.6404
17031691000,3,Urban Farm,N/A,76,Greater Grand Crossing Urban Farm,"331 E 71st St,  Chicago, IL, 60619",Null,60619,41.76564,-87.6185
17031833300,3,Urban Farm,N/A,78,Near West Side Urban Farm,"1100 W Roosevelt Rd,  Chicago, IL, 60608",Null,60608,41.86714,-87.6544
17031835500,3,Urban Farm,N/A,79,Fuller Park Urban Farm,"4401 S Stewart Ave,  Chicago, IL, 60609",Null,60609,41.81445,-87.6359
17031836700,3,Urban Farm,N/A,80,Humboldt Park Urban Farm,"400 N Kedzie Ave,  Chicago, IL, 60624",Null,60612,41.88832,-87.7065
17031834500,3,Urban Farm,N/A,81,Washington Park Urban Farm,"5700 S Perry Ave,  Chicago, IL, 60621",Null,60621,41.79091,-87.6279
17031835700,3,Urban Farm,N/A,82,Grand Boulevard Urban Farm,"4400 S State,  Chicago, IL, 60609",Null,60609,41.8146,-87.6264
17031833900,3,Urban Farm,N/A,83,South Chicago Urban Farm,"8900 S Commercial Ave,  Chicago, IL, 60617",Null,60617,41.73373,-87.5513
17031540102,3,Urban Farm,N/A,84,Riverdale Urban Farm,"600 E 130th St,  Chicago, IL, 60628",Null,60628,41.65925,-87.6074
17031252201,1,Retailer,372246,2153429,Louis' Groceries,7604 S COTTAGE GROVE AVE,Null,60619,41.75655031,-87.60548285
17031020601,1,Retailer,360006,2163771,Mariano's Fresh Market #8507,5353 N ELSTON AVE,Null,60630,41.97871026,-87.75715377
17031841900,1,Retailer,359604,2079521,William's Produce,6309 W GRAND AVE,6375,60639,41.92189423,-87.78339752
17031620200,1,Retailer,358374,2069477,Carniceria Guanajuato,5250 W FULLERTON AVE,9325,60639,41.92418915,-87.75822974
17031062500,1,Retailer,357879,2065274,Chicago Health - Maple Street,22 W MAPLE ST,2900,60610,41.90198255,-87.6292631
17031020602,1,Retailer,357299,2060960,Carniceria Guanajuato,3132 N CALIFORNIA AVE,9000,60618,41.93856972,-87.69794595
17031251500,1,Retailer,357170,2060727,Super Furniture & Food Mart,5257 S ASHLAND AVE,4000,60609,41.79782259,-87.66453688
17031140301,1,Retailer,357089,2060542,Carniceria La Villa #2,5800 W GRAND AVE,3289,60639,41.9197749,-87.77072653
17031500100,1,Retailer,356315,2055024,"Sweqi Food Mart, Inc.",4100 W NORTH AVE,2600,60639,41.90996088,-87.72887496
17031030703,1,Retailer,356046,2054475,Outlet Kingdom,3449 S HALSTED ST,4000,60608,41.83107494,-87.64597111
17031381500,1,Retailer,354856,2043177,Michaels Fresh Market,1300 E 47TH ST,41000,60653,41.80977273,-87.59496089
17031630500,1,Retailer,354339,2042000,Supermercado Guadalajara,3100 W CERMAK RD,3800,60623,41.85190837,-87.70287599
17031841900,1,Retailer,353309,2033049,Puerto Rico Food & Liquors,2559 W AUGUSTA BLVD,2500,60622,41.89922158,-87.69173812
17031020802,1,Retailer,353027,2032403,Super Dollar Discount,4801 S ASHLAND AVE,3500,60609,41.80669392,-87.66477165
17031842300,1,Retailer,352811,2032029,One Stop,4401 W MADISON ST,2500,60624,41.88049945,-87.73559596
17031250800,1,Retailer,352796,2031993,Fairway Food,2900 E 79TH ST,3000,60649,41.75200539,-87.55401542
17031510100,1,Retailer,352794,2031979,Furteria El Serranito,1755 W 38TH ST,2500,60609,41.82486062,-87.67002302
17031050200,1,Retailer,352625,2031620,Osama Food Mart,615 E 67TH ST,2800,60637,41.77295752,-87.6099734
17031030200,1,Retailer,351168,2021618,The Unit,2523 E 75TH ST,3500,60649,41.75892232,-87.56287604
17031231200,1,Retailer,350864,2020869,Hegewisch Fruit Market Inc.,13209 S BALTIMORE AVE,7800,60633,41.65518859,-87.54699942
17031681300,1,Retailer,350756,2033012,Quintessence,1532 N PULASKI RD,3000,60651,41.90910776,-87.72663415
17031242700,1,Retailer,350688,2017781,Natural Country Deli,6452 N MILWAUKEE AVE,3500,60631,41.99849297,-87.78909537
17031160300,1,Retailer,350131,2014232,Burnham Plaza Mart,828 S WABASH AVE,2950,60605,41.8714442,-87.62607513
17031080202,1,Retailer,350114,2014197,Zee Dollar And Food,375 E 75TH ST,3000,60619,41.75829332,-87.61535411
17031010702,1,Retailer,350093,2014141,Laramie Bakery & Deli,3232 N HARLEM AVE,12331,60634,41.93898597,-87.80692906
17031031200,1,Retailer,349374,2009055,Sanabel Grocery & Bakery,4213 N KEDZIE AVE,6200,60618,41.9579834,-87.70799592
17031840800,1,Retailer,349092,2008403,South Shore Food Market Inc.,7501 S JEFFERY BLVD,3000,60649,41.75878729,-87.57599348
17031030604,1,Retailer,348383,2003267,New La Estrella Foods Inc.,3003 W 63RD ST,5800,60629,41.77893156,-87.69841709
17031191302,1,Retailer,347422,1997806,Super Mas Market,1422 W 47TH ST,32000,60609,41.80876546,-87.66117011
17031070101,1,Retailer,346718,1991322,"Calma Optimal Deli, Inc.",5155 W ADDISON ST,3000,60641,41.9458951,-87.75664585
17031031501,1,Retailer,346323,1986802,El Yunque Food & Liquor,1900 N CALIFORNIA AVE,2500,60647,41.91576102,-87.69729581
17031140800,1,Retailer,346168,1986580,Dililah Grocery,1759 W 21ST ST,3125,60608,41.85396788,-87.67087019
17031280100,1,Retailer,345267,1980803,"Three Roosters, Inc.",12247 S HALSTED ST,4830,60628,41.67097177,-87.64153305
17031843400,1,Retailer,344633,1979483,City Grocery,405 N WABASH AVE,5000,60611,41.88946533,-87.62650927
17031440800,1,Retailer,343806,1974575,T & Z Meat,3021 N CICERO AVE,3000,60641,41.93581593,-87.7466187
17031421200,1,Retailer,343785,1974525,Busy Bee Supermarket,5659 S ASHLAND AVE,2500,60636,41.79048002,-87.66434507
17031242600,1,Retailer,342952,1969290,First Choice Market,3019 E 91ST ST,10000,60617,41.72997787,-87.55038259
17031681300,1,Retailer,341069,1958784,79 Food Basket,1351 W 79TH ST,3000,60620,41.75032112,-87.65818905
17031560700,1,Retailer,340750,1954411,A & R Food Mart,5952 W GRAND AVE,3500,60639,41.92059646,-87.77519268
17031040600,1,Retailer,340517,2008956,"Park Packing Of Chicago, Inc.",1544 W 41ST ST,3500,60609,41.81915944,-87.66423536
17031530300,1,Retailer,340165,1948869,Mayfair Market Place,"4728 N Pulaski Rd, Chicago, IL 60630",12000,60630,41.96726667,-87.72814705
17031611900,1,Retailer,339512,2017764,Farm Super Market,2255 W DEVON AVE,3000,60659,41.99766696,-87.68721346
17031190900,1,Retailer,339315,1943396,Three R Food,2712 W MONTROSE AVE,3000,60618,41.96137095,-87.69666935
17031831100,1,Retailer,338404,1991275,Shop & Save Market,5829 S ARCHER AVE,63426,60638,41.79601962,-87.75968337
17031841100,1,Retailer,336958,1931999,Boulevard Food & Liquor Llc,5922 W IRVING PARK RD,3350,60634,41.95318259,-87.77525938
17031242500,1,Retailer,335302,1922145,Gene's Sausage Shop & Deli,4746 N LINCOLN AVE,6000,60625,41.96775366,-87.68817172
17031650302,1,Retailer,331037,1904290,Chatham Food Market,327 E 79TH ST,4500,60619,41.75097268,-87.61695788
17031834300,1,Retailer,330517,1903198,Oriental Asia Market Inc.,4932 N SHERIDAN RD,7500,60640,41.97255593,-87.65505767
17031070700,1,Retailer,329883,1898994,Cottage Grove Food Mart,6307 S COTTAGE GROVE AVE,4000,60637,41.78015196,-87.60577752
17031580100,1,Retailer,326926,1888080,Danny's Fresh Market,2140 N WESTERN AVE,14405,60647,41.92109627,-87.68767101
17031160601,1,Retailer,326392,1884977,Mlb Food,613 E 67TH ST,2500,60637,41.7729559,-87.61005781
17031480400,1,Retailer,325993,1884100,"Hyde Park Produce, Ltd",1226 E 53RD ST,10000,60615,41.7995768,-87.59551292
17031831500,1,Retailer,325934,1883995,Prestige Liquors,7104 S WESTERN AVE,2900,60636,41.7644956,-87.68338427
17031151100,1,Retailer,324962,1879269,Eddy's Food Mart,7575 N ROGERS AVE,4000,60626,42.01916463,-87.66839729
17031301702,1,Retailer,322813,1869021,Lux 2 Food & Liquor,7550 S MAY ST,2500,60620,41.7561627,-87.6528196
17031500200,1,Retailer,320408,1842843,Trattoria Isabella,217 N JEFFERSON ST,3365,60661,41.88629367,-87.64264392
17031140200,1,Retailer,319069,1922124,All Star Food & Liquor,2911 S ARCHER AVE,4200,60608,41.84148404,-87.65802198
17031750600,1,Retailer,319024,1823321,Extra Value Food & Liquor,6257 S ASHLAND AVE,5000,60636,41.77961467,-87.66407749
17031660900,1,Retailer,316090,1817376,Adams Food Mart,559 N LARAMIE AVE,2500,60644,41.89103355,-87.75530965
17031480200,1,Retailer,315282,1804216,"La Nueva Imagen Grocery, Inc.",2459 S MILLARD AVE,3000,60623,41.8462971,-87.71591643
17031612100,1,Retailer,315225,1843355,The Warehouse,538 W 119TH ST,6000,60628,41.677986,-87.63620086
17031081500,1,Retailer,314329,1801622,Moroleon Foods #2 Inc.,4257 S ROCKWELL ST,3025,60632,41.81577112,-87.6893859
17031221400,1,Retailer,314238,1801493,Carniceria Del Rio,2714 W CERMAK RD,3000,60608,41.85203474,-87.69369691
17031691000,1,Retailer,313836,1800292,"Carniceria La Mejor Produce, Inc.",2915 N MILWAUKEE AVE,4500,60618,41.9343144,-87.715772
17031710300,1,Retailer,313811,1800261,Supermercado La Villa,5020 W FULLERTON AVE,9000,60639,41.92427271,-87.75211504
17031301600,1,Retailer,312119,1771243,Pete's Market,2526 W CERMAK RD,Null,#N/A,41.85210065,-87.68905111
17031520100,1,Retailer,312119,1771242,Pete's Market,2526 W CERMAK RD,75000,60608,41.85210065,-87.68905111
17031200200,1,Retailer,311980,1770942,Cermak Produce,3311 W 26TH ST,17000,60623,41.84436673,-87.70789805
17031140100,1,Retailer,311388,1769425,Tierra Caliente Market,1402 N ASHLAND AVE,3125,60622,41.90710182,-87.66773966
17031030701,1,Retailer,311076,1768971,Carniceria El Porvenir,150 E KENSINGTON AVE,2500,60628,41.6840632,-87.61874297
17031020802,1,Retailer,310507,2014104,Supermarket & Taqueria Caro,4937 W 47TH ST,4524,60638,41.80746088,-87.74706057
17031030800,1,Retailer,308026,1798602,Strack & Van Til,2627 N ELSTON AVE,65400,60647,41.92948927,-87.68368782
17031150300,1,Retailer,308026,1741082,Ultra Foods,3250 W 87TH ST,87600,60652,41.73527409,-87.70351128
17031190402,1,Retailer,306063,1719179,New Pop-in,413 S KEDZIE AVE,8784,60612,41.87542375,-87.70582036
17031530200,1,Retailer,305203,1717529,"Tony's Finer Foods Enterprises, Inc.",4137 N ELSTON AVE,31000,60618,41.9561262,-87.72248283
17031833000,1,Retailer,305203,1717532,"Tony's Finer Foods Enterprises, Inc.",4608 W BELMONT AVE,33000,60641,41.93899382,-87.74269899
17031010600,1,Retailer,305203,1717867,"Tony's Finer Foods Enterprises, Inc.",3607 W FULLERTON AVE,21000,60647,41.92449009,-87.71728813
17031720700,1,Retailer,305203,1717568,"Tony's Finer Foods Enterprises, Inc.",2500 N CENTRAL AVE,35000,60639,41.92589288,-87.76620483
17031020601,1,Retailer,303471,1,Walmart,10900 S DOTY AVE W,Null,#N/A,41.69631368,-87.59663224
17031020702,1,Retailer,303471,2164075,Walmart,1424 W 47TH ST,Null,60609,41.80876829,-87.66098821
17031520400,1,Retailer,301699,1680919,Paulina Market,3501 N LINCOLN AVE,10000,60657,41.94525416,-87.67238979
17031261000,1,Retailer,300221,1677517,"Park Foods Of 71st Street,inc.",2612 W 71ST ST,3500,60629,41.76471714,-87.68875098
17031351000,1,Retailer,299177,1650212,Los Potrillos,3624 W BELMONT AVE,7000,60618,41.93930952,-87.71853994
17031431301,1,Retailer,298958,1649774,Cermak Produce,3435 S ARCHER AVE,10000,60608,41.8313499,-87.67584785
17031190602,1,Retailer,298914,1675623,Emilio's Produce,2294 N MILWAUKEE AVE,2500,60647,41.92259747,-87.69709763
17031020100,1,Retailer,298039,1648410,Morelia Supermarket,4833 W DIVERSEY AVE,12000,60639,41.93140629,-87.74793697
17031491000,1,Retailer,297549,1648017,Macias Produce Inc.,8933 S COMMERCIAL AVE,7000,60617,41.73273359,-87.55117278
17031170800,1,Retailer,296662,1646096,Pete's Market,2001 W 71ST ST,7500,60636,41.76469612,-87.67359278
17031834600,1,Retailer,296646,1646036,Berbate Fruit Market,3956 N NARRAGANSETT AVE,2500,60634,41.95273156,-87.78669844
17031611000,1,Retailer,295467,1840895,Supermercado El Mexicano,6701 N CLARK ST,4387,60626,42.00358497,-87.67235193
17031191301,1,Retailer,294177,1618660,Happy Foods,6783 N NORTHWEST HWY,11000,60631,42.00439926,-87.81848576
17031440300,1,Retailer,294177,1618656,Happy Foods,6415 N CENTRAL AVE,11500,60646,41.99786001,-87.7634458
17031620200,1,Retailer,292834,1598145,Pete's Market,3448 E 118TH ST,50000,60617,41.68105956,-87.53936754
17031630300,1,Retailer,292263,1597198,Rj Liquors,5640 W FULLERTON AVE,3550,60639,41.92406442,-87.76766049
17031831900,1,Retailer,292181,1619464,Cuenca's Bakery & Groceries,4229 W MONTROSE AVE,4500,60641,41.96076752,-87.73394693
17031241500,1,Retailer,291625,1682475,Food Basket,7205 S HALSTED ST,2500,60621,41.7631812,-87.64421502
17031550100,1,Retailer,291475,1597521,"Super Dollar And Up 4, Inc.","1606 W 59th St, Chicago, IL 60636",4000,60636,41.78685263,-87.66461558
17031120200,1,Retailer,290756,1594450,Saveway Food,313 E 43RD ST,3000,60653,41.81648632,-87.61919683
17031612000,1,Retailer,289367,1591726,West Lawn Foods,5838 S PULASKI RD,17000,60629,41.78660841,-87.72313003
17031650301,1,Retailer,286898,1575140,Joe's Food And Liquor Depot,5834 W FULLERTON AVE,4000,60639,41.92399183,-87.77228911
17031230400,1,Retailer,286737,1574603,The Cellar,3106 N HARLEM AVE,5000,60634,41.93661313,-87.80684752
17031833100,1,Retailer,286531,1574003,Cermak Produce,4401 W ARMITAGE AVE,14000,60639,41.91693444,-87.73638715
17031842400,1,Retailer,282078,1542202,Al Bayan Grocery Inc.,3134 N NARRAGANSETT AVE,2500,60634,41.93756465,-87.78605437
17031140301,1,Retailer,280735,1518304,Morse Food And Meat Market,1430 W MORSE AVE,17000,60626,42.00799492,-87.66717415
17031031501,1,Retailer,279945,2008279,Makola African Supermarket #2,4501 N SHERIDAN RD,3500,60640,41.96365028,-87.65462219
17031840400,1,Retailer,279468,1515206,Cermak Produce,5220 S PULASKI RD,25000,60632,41.79799187,-87.72344374
17031710800,1,Retailer,279304,1514813,Carniceria La Gloria,2744 W 55TH ST,7500,60632,41.79381183,-87.6931506
17031630500,1,Retailer,277614,1494240,Mi Mexico Grocery,2601 W 59TH ST,2600,60629,41.78637634,-87.68877651
17031100200,1,Retailer,277375,1575023,5659 W. Diversey,5659 W DIVERSEY AVE,4000,60639,41.9311354,-87.76861213
17031830900,1,Retailer,277252,1493584,Supermercado Tepecoa Guerrero,3629 W 63RD ST,3500,60629,41.77868472,-87.71425166
17031030701,1,Retailer,276948,1492826,"Carniceria La Hacienda, Inc.",3459 W 59TH ST,4000,60629,41.7860244,-87.71060478
17031760802,1,Retailer,276156,1491357,Bockwinkels,222 N COLUMBUS DR,7200,60601,41.88633942,-87.62083615
17031841300,1,Retailer,274865,1488855,Three Stars Liquors,310 N KOSTNER AVE,4600,60624,41.88582299,-87.73578781
17031060900,1,Retailer,273724,1478386,Municipal Foods,2559 W DIVISION ST,9980,60622,41.90285923,-87.69188858
17031520300,1,Retailer,273150,1476657,Cermak Produce,1711 W CERMAK RD,15000,60608,41.85216786,-87.66897504
17031190800,1,Retailer,273149,1476654,Cermak Produce,4234 N KEDZIE AVE,29000,60618,41.95859672,-87.70830958
17031320600,1,Retailer,273114,1476553,Pete's Market,1543 E 87TH ST,5000,60619,41.73679546,-87.58627251
17031200200,1,Retailer,272992,1476109,S. S. Food & Liquor,2427 N CLARK ST,2703,60614,41.9263717,-87.64080008
17031390100,1,Retailer,272175,1474028,Foodsmart,2901 W ARMITAGE AVE,13800,60647,41.91735855,-87.69934107
17031750100,1,Retailer,271891,1473367,Arista Foods,112 N MAY ST,10000,60607,41.88340212,-87.65572529
17031062600,1,Retailer,271545,1471030,Carniceria La Gloria,2551 W 51ST ST,6500,60632,41.80096928,-87.6887221
17031260400,1,Retailer,271341,1448266,Pete's Market,1411 W 87TH ST,10000,60620,41.73574485,-87.65871771
17031710700,1,Retailer,270755,1446831,Baltimore Food & Liquor,13322 S BALTIMORE AVE,3404,60633,41.65296461,-87.54729865
17031032100,1,Retailer,269649,1444872,Nayab Mart,2449 W DEVON AVE,3125,60659,41.99758912,-87.69183691
17031730201,1,Retailer,268397,1441898,Charlies  Supermarket Inc.,2941 W MONTROSE AVE,2500,60618,41.96111443,-87.70258694
17031490902,1,Retailer,266140,1382145,Fresh Market Place,2600 N CENTRAL AVE,20000,60639,41.92764768,-87.76626652
17031420800,1,Retailer,265429,1380524,Luciano's Grocery-18th St,1714 W 18TH ST,6000,60608,41.85785657,-87.6694196
17031190100,1,Retailer,264103,1357606,"Calabria Imports, Inc.",1905 W 103RD ST,3100,60643,41.70647332,-87.66935499
17031190800,1,Retailer,263556,2079006,Sahar International Supermarket,4851 N KEDZIE AVE,7900,60625,41.96995754,-87.70837288
17031220701,1,Retailer,262231,1354069,Carniceria La Azteca,7067 N CLARK ST,2500,60626,42.01096295,-87.67421466
17031031200,1,Retailer,260726,1337515,Budget Finer Foods,6604 N SHERIDAN RD,3200,60626,42.00272611,-87.66093837
17031580700,1,Retailer,260303,1336669,Pete's Market,4343 S PULASKI RD,57000,60632,41.81391431,-87.72366494
17031831100,1,Retailer,259101,1334440,Shop Wise Food,316 W 103RD ST,6000,60628,41.70717395,-87.63140242
17031230600,1,Retailer,258947,1334026,Market In The Park,5050 S LAKE SHORE DR,5049,60615,41.80287978,-87.58184369
17031160501,1,Retailer,258200,1332221,Chicago Grocers,2122 W DEVON AVE,2500,60659,41.99794589,-87.68356871
17031031200,1,Retailer,254645,1301216,El  Paseo  Boricua,2706 W DIVISION ST,3000,60622,41.9030542,-87.69477042
17031020802,1,Retailer,253902,1299537,Europa Galleria Inc,340 W SUPERIOR ST,6500,60610,41.89566277,-87.63722072
17031681100,1,Retailer,252997,1276566,Dollar Deals & Up,2057 N PULASKI RD,2500,60639,41.91889126,-87.72646532
17031010100,1,Retailer,251347,1272746,Peterson Food Mart,2534 W PETERSON AVE,2500,60659,41.99058521,-87.69353452
17031161300,1,Retailer,251246,1884255,Food 4 Less,4821 W NORTH AVE,58000,60639,41.90950515,-87.74695994
17031843200,1,Retailer,251246,1272529,Food 4 Less,4620 S DAMEN AVE,64486,60609,41.80966853,-87.6751157
17031830700,1,Retailer,251246,1596210,Food 4 Less,7030 S ASHLAND AVE,62000,60636,41.76579077,-87.66396689
17031750100,1,Retailer,251246,1928152,Food 4 Less,112 W 87TH ST,63506,60620,41.73638005,-87.62750922
17031252101,1,Retailer,250439,1270949,Morgan Food Corp Llc,6600 S MORGAN ST,3500,60621,41.77412895,-87.649646
17031320100,1,Retailer,246600,1245246,Bari,1120 W GRAND AVE,2500,60622,41.89121012,-87.65556024
17031301803,1,Retailer,245519,1243125,Pete's Market,4700 S KEDZIE AVE,45000,60632,41.80804727,-87.70411882
17031010600,1,Retailer,243702,1892862,Morelia Supermarket,7300 N WESTERN AVE,8000,60645,42.01418398,-87.69037835
17031431200,1,Retailer,243092,1225367,Ohio Food Mart,5345 W OHIO ST,3500,60644,41.89104929,-87.75973284
17031830600,1,Retailer,230035,1223250,Los Sauces Grocery,5852 W DIVERSEY AVE,2800,60639,41.9312882,-87.77324145
17031310800,1,Retailer,229704,1222467,"Krakus Deli,  Inc",5155 W ADDISON ST,3500,60641,41.9458951,-87.75664585
17031834300,1,Retailer,223107,1221783,Grand Food Market,5202 W GRAND AVE,3952,60639,41.91706775,-87.75604133
17031843700,1,Retailer,222688,1198136,Rite Price Food,5606 W DIVISION ST,3600,60651,41.90225069,-87.76595092
17031740200,1,Retailer,221943,1196305,Fiesta Supermarcado,3307 W 63RD ST,14500,60629,41.77881858,-87.70590358
17031050300,1,Retailer,221849,1998505,Neil's Food,7749 S HALSTED ST,3500,60620,41.75283042,-87.64395052
17031191302,1,Retailer,217567,1379268,"H & A Food Market, Inc.",1007 W 63RD ST,2500,60621,41.77956458,-87.64997484
17031081000,1,Retailer,216203,1299911,Save-a-lot,3939 W OGDEN AVE,Null,60623,41.85128849,-87.72385084
17031061800,1,Retailer,216203,1196076,Save-a-lot,4439 W 63RD ST,12500,60629,41.77841597,-87.73405757
17031842200,1,Retailer,216203,1245433,Save-a-lot,7908 S HALSTED ST,15000,60620,41.75032239,-87.64418241
17031740100,1,Retailer,216203,1167119,Save-a-lot,10700 S HALSTED ST,114100,60628,41.69954741,-87.64275192
17031411100,1,Retailer,216203,1145759,Save-a-lot,7240 S STONY ISLAND AVE,14166,60649,41.76302237,-87.58639016
17031080201,1,Retailer,216203,2079367,Save-a-lot,344 E 63RD ST,16290,60637,41.78032161,-87.61713538
17031550100,1,Retailer,216203,1272454,Save-a-lot,2858 E 83RD ST,12000,60617,41.74473084,-87.55403914
17031830500,1,Retailer,216203,2079232,Save-a-lot,148 W 79TH ST,13000,60620,41.75098379,-87.62896145
17031190200,1,Retailer,216203,1272455,Save-a-lot,420 S PULASKI RD,12000,60624,41.87453731,-87.7255969
17031231200,1,Retailer,216203,1222884,Save-a-lot,5555 W NORTH AVE,12000,60639,41.90927457,-87.76518779
17031832600,1,Retailer,216203,1353496,Save-a-lot,4701 S COTTAGE GROVE AVE,14800,60615,41.80948925,-87.60641743
17031410800,1,Retailer,216010,1145417,Rose-ridge Foods,10500 S MICHIGAN AVE,3000,60628,41.70341522,-87.62080968
17031160400,1,Retailer,215370,1144306,Rigo's Grocery,2858 S LAWNDALE AVE,2500,60623,41.83893675,-87.71723055
17031100200,1,Retailer,211718,1592120,Trader Joe's,44 E ONTARIO ST,10615,60611,41.89340802,-87.62643774
17031220400,1,Retailer,211718,1277005,Trader Joe's,1840 N CLYBOURN AVE,11600,60614,41.91442371,-87.65462784
17031100500,1,Retailer,211718,1991799,Trader Joe's,3745 N LINCOLN AVE,15000,60613,41.94996117,-87.67567113
17031140701,1,Retailer,210118,2073925,Munchies On Larrabee,1012 N LARRABEE ST,2500,60610,41.90084859,-87.64325554
17031222500,1,Retailer,209575,1119908,"Kan-zaman Mart, Inc.",2005 S MICHIGAN AVE,4600,60616,41.85531767,-87.62372652
17031570400,1,Retailer,209419,1119636,Northwest Food & Liquor,5170 W NORTH AVE,3180,60639,41.9096149,-87.75547797
17031191302,1,Retailer,207539,1094121,Mehrab Zabiha Meat & Tobacco,2445 W DEVON AVE,3000,60659,41.99759202,-87.69166812
17031191200,1,Retailer,207399,1093813,Am-pm Food Mart & Cellular,1924 E 87TH ST,3500,60617,41.73714625,-87.57708099
17031010502,1,Retailer,206261,1091886,Supermercado Santos,4045 W 31ST ST,4000,60623,41.83674996,-87.72613266
17031612100,1,Retailer,205927,1070189,Richwell Market,1835 S CANAL ST,7500,60616,41.85665718,-87.63875335
17031672000,1,Retailer,205718,1337266,Olive Mount Mart,3536 W 63RD ST,3000,60629,41.77894012,-87.71186857
17031711400,1,Retailer,204849,1068956,Alla's Food,2024 E 93RD ST,3500,60617,41.72624035,-87.57429226
17031081403,1,Retailer,203580,1045757,Gemelos Food/ Check Cashing Services,4300 S MOZART ST,6600,60632,41.815432,-87.69579779
17031611300,1,Retailer,203033,1490386,Solid Gold,3821 W ROOSEVELT RD,3300,60624,41.86611949,-87.72092757
17031840700,1,Retailer,201952,1042888,Devon Market,1440 W DEVON AVE,18500,60660,41.99822825,-87.66710447
17031081100,1,Retailer,201574,1042285,"Rio Grande Fruit Market, Inc.",3501 W NORTH AVE,3750,60647,41.90991071,-87.71438551
17031271200,1,Retailer,89325,49303,Supermercado La Chiqutia # 4,2623 S PULASKI RD,10001,60623,41.84353489,-87.72438218
17031460500,1,Retailer,89265,39650,Riviera Foods,3218 N HARLEM AVE,3500,60634,41.93859128,-87.8069148
17031330100,1,Retailer,88874,34508,Tai Nam Corporation,4925 N BROADWAY,10001,60640,41.97221356,-87.6596091
17031711400,1,Retailer,88729,25338,Patel Bros,2610 W DEVON AVE,5000,60659,41.9977473,-87.69525116
17031010600,1,Retailer,88712,19461,Sun Liquors,1101 W GRANVILLE AVE,4350,60660,41.99446571,-87.65839281
17031030900,1,Retailer,86830,32236,Supermercado Chapala,7117 N CLARK ST,10001,60626,42.0119758,-87.67438406
17031081800,1,Retailer,86704,21126,Mounsef International,4738 N KEDZIE AVE,10001,60625,41.96779309,-87.7086027
17031242200,1,Retailer,86677,18082,"Szymanski Bros, Inc",6016 W IRVING RD,3000,60634,41.95314974,-87.77751749
17031090200,1,Retailer,86492,957,Bob's Liquors & Groceries,5069 W MADISON ST,10001,60644,41.88029609,-87.7524942
17031843100,1,Retailer,86481,10940,Fairplay Finer Food,2200 S WESTERN AVE,10001,60608,41.85198384,-87.6857857
17031691300,1,Retailer,86481,10949,Fairplay Finer Food,4640 S HALSTED ST,10001,60609,41.80962977,-87.64570757
17031540101,1,Retailer,86481,10947,Fairplay Foods Inc,2323 W 111TH ST,18500,60643,41.6916792,-87.67977917
17031630400,1,Retailer,86373,62800,Almuflihi Food & Liquor,5404 S HALSTED ST,4500,60609,41.7958708,-87.64534412
17031430400,1,Retailer,86298,54059,Whole Foods,3300 N ASHLAND AVE,4501,60657,41.94156586,-87.6688604
17031151002,1,Retailer,86298,1678043,Whole Foods,1101 S CANAL ST,11310,60607,41.86888971,-87.63909893
17031610300,1,Retailer,86298,1678035,Whole Foods,6020 N CICERO AVE,6335,60646,41.99049477,-87.74847741
17031251600,1,Retailer,86298,1933690,Whole Foods,1550 N KINGSBURY ST,74883,60642,41.90939879,-87.6530507
17031711300,1,Retailer,86298,76395,Whole Foods,30 W HURON ST,30591,60610,41.89496867,-87.62939918
17031831400,1,Retailer,86298,1678048,Whole Foods,3640 N HALSTED ST,19740,60613,41.9485198,-87.64967012
17031843200,1,Retailer,86194,42744,Lindo Michoacan,3142 W LAWRENCE AVE,8600,60625,41.96857277,-87.7077877
17031660600,1,Retailer,85532,10540,Viet Hoa Plaza,1051 W ARGYLE ST,6174,60640,41.97317401,-87.65699233
17031030101,1,Retailer,85432,4248,Mario 's Butcher Shop Fd Cntr,5817 W MADISON ST,10001,60644,41.88004498,-87.77049338
17031010502,1,Retailer,85292,1693,Carniceria Jimenez,4204 W NORTH AVE,16000,60639,41.90992525,-87.73155722
17031650301,1,Retailer,85292,1698,La Perla Tapatia Bakery,4214 W NORTH AVE,3000,60639,41.90991975,-87.73197126
17031020500,1,Retailer,85291,1303,Treasure Island Foods,75 W ELM ST,10001,60610,41.90302614,-87.63134877
17031241500,1,Retailer,85291,1311,Treasure Island Foods,3460 N BROADWAY,10001,60657,41.94482827,-87.64589349
17031160601,1,Retailer,85291,1319,Treasure Island Foods,680 N LAKE SHORE DR,10001,60611,41.89479837,-87.61586665
17031835000,1,Retailer,85291,1315,Treasure Island Foods,2121 N CLYBOURN AVE,10001,60614,41.91989968,-87.66180554
17031570100,1,Retailer,85291,1307,Treasure Island Foods,1639 N WELLS ST,10001,60614,41.9123118,-87.63459886
17031510100,1,Retailer,81586,85044,Gaytan Grocery Store,2802 S KOLIN AVE,3500,60623,41.84030863,-87.73310706
17031081201,1,Retailer,65396,1999075,K Buena,4322 W MARQUETTE RD,3500,60629,41.77138332,-87.73095337
17031031400,1,Retailer,64229,1892499,Hong Kong Market,520 W 24TH PL,46300,60616,41.84823717,-87.64095553
17031251800,1,Retailer,63654,28038,Tai Wah Grocery,2226 S WENTWORTH AVE,3200,60616,41.8521272,-87.632144
17031400800,1,Retailer,63611,27007,Royla Blue Foods,4359 S CAMPBELL AVE,2500,60632,41.81393768,-87.68692201
17031390700,1,Retailer,63476,24217,"Eddie's Sunshine Food & Liquor,  Inc.",10806 S MICHIGAN AVE,3000,60628,41.69781792,-87.621011
17031030102,1,Retailer,63389,22662,La Plama,4173 S ARCHER AVE,15000,60632,41.81757931,-87.69832059
17031010702,1,Retailer,63361,21936,J & J European Deli,5960 W LAWRENCE AVE,3000,60630,41.9677648,-87.7770202
17031301701,1,Retailer,63206,17340,Carniceria Guanajuato,1436 N ASHLAND AVE,8800,60622,41.90811537,-87.66776383
17031020901,1,Retailer,62866,8425,Hoa Nom Co,1101 W ARGYLE ST,4200,60640,41.9731613,-87.65783318
17031560700,1,Retailer,62837,7790,Los Cuatro Hermanos Grocery,1858 S ALLPORT ST,10001,60608,41.85620222,-87.65774497
17031831000,1,Retailer,62794,6981,Serrelli's Foods,6454 W NORTH AVE,4000,60707,41.9092299,-87.78712882
17031230400,1,Retailer,62766,6321,Three Brother,900 N FRANCISCO AVE,10001,60622,41.89810682,-87.69937838
17031310600,1,Retailer,62754,6157,Jewel Food Store,8235 W IRVING PARK RD,3000,60634,41.95201856,-87.83316684
17031830700,1,Retailer,62541,1900,Aaray Grocery,2601 N HALSTED ST,10001,60614,41.92920982,-87.64874627
17031841300,1,Retailer,62539,1858,Hollywood Tower Mkt,5701 N SHERIDAN RD,3000,60660,41.98563842,-87.65509432
17031170800,1,Retailer,56673,50473,Ada Foods,1281 W 71ST ST,4500,60636,41.76489418,-87.6573078
17031837300,1,Retailer,46290,1875260,Dollar & Linen,1853 W 87TH ST,5800,60620,41.73558907,-87.66995173
17031840800,1,Retailer,43885,67114,La Guerrerense,4149 W ARMITAGE AVE,3000,60639,41.917,-87.73098926
17031830800,1,Retailer,35423,44373,A & G Liquors,6945 S STATE ST,4800,60637,41.76783128,-87.62476594
17031630300,1,Retailer,33441,37540,Super Jim's,5147 W DIVISION ST,4500,60651,41.90214722,-87.75523939
17031070102,1,Retailer,32337,1000978,J K & S Food & Liquor,503 W 59TH ST,3024,60621,41.78703907,-87.63781273
17031670600,1,Retailer,28478,1045545,Thrifty Food,928 W WILSON AVE,4000,60640,41.9655577,-87.65355928
17031832300,1,Retailer,26728,1122087,Superior Nut & Candy  Co.I Inc.,1111 W 40TH ST,10005,60609,41.82095749,-87.65377832
17031222500,1,Retailer,24875,10794,The Market Place Foodstore,521 W DIVERSEY PKWY,16900,60614,41.93274396,-87.64221885
17031560300,1,Retailer,23967,6249,Washington Grocery,4139 W FIFTH AVE,4200,60624,41.87186361,-87.72905737
17031220702,1,Retailer,23937,62092,K & K Food & Liquor,1130 W 51ST ST,4200,60609,41.80157684,-87.65378847
17031060100,1,Retailer,23932,56894,Commercial Grocery,3004 E 100TH ST,2500,60617,41.71349784,-87.55073311
17031260800,1,Retailer,23661,4749,La Jaliscience,3239 W 26TH ST,3000,60623,41.84438799,-87.7064971
17031831500,1,Retailer,23651,3991,Supermercado Guadalajara,2300 S KEDZIE AVE,6000,60623,41.84985753,-87.70534348
17031842800,1,Retailer,23391,1046303,Logan Certified Foods Corp,2857 W DIVERSEY AVE,4500,60647,41.93197047,-87.69993162
17031710200,1,Retailer,23327,79959,Nancy Foods Inc,12315 S STATE ST,2500,60628,41.6702524,-87.62227196
17031010202,1,Retailer,22785,77270,Family Pride,10601 S PULASKI RD,12500,60655,41.70035527,-87.7205409
17031750300,1,Retailer,22681,76774,Loreto Grocery,4600 S FAIRFIELD AVE,4499,60632,41.81000148,-87.69318135
17031292200,1,Retailer,22614,76481,Quality Food On 71 St Inc,2557 W 71ST ST,3000,60629,41.76451168,-87.68798666
17031410700,1,Retailer,21938,72825,Wally's Market Inc,6601 W IRVING PARK RD,33000,60634,41.95272166,-87.79136221
17031490700,1,Retailer,21515,1492163,World Fresh Market,2434 W DEVON AVE,5500,60659,41.99781793,-87.69125189
17031190402,1,Retailer,21223,69608,Cermak Produce,2701 W NORTH AVE,17000,60647,41.91013224,-87.69460039
17031231500,1,Retailer,20954,68226,Awami Bazaar & Zabiha Meat,2340 W DEVON AVE,2500,60659,41.99785369,-87.68906427
17031150402,1,Retailer,20727,1246771,Avenue Food Mar Inc,6850 W BELMONT AVE,18000,60634,41.93823738,-87.79776035
17031460302,1,Retailer,20695,67273,Supermercado Gela's,2701 S LAWNDALE AVE,3125,60623,41.84242453,-87.71703032
17031671800,1,Retailer,20694,1899688,"My Ranch, Inc.",4650 N SHERIDAN RD,8500,60640,41.96697757,-87.65494464
17031711000,1,Retailer,20549,66710,Two Blue Foods Inc,702 E 100TH PL,3000,60628,41.71240379,-87.60512759
17031431302,1,Retailer,20469,66257,Centro Market,5153 S KEDZIE AVE,9100,60632,41.79925704,-87.70357471
17031450300,1,Retailer,20310,65173,La Cienega Super Food Inc,10736 S EWING AVE,10000,60617,41.69981485,-87.53542689
17031020200,1,Retailer,19735,62460,Buy -n- Save,209 E 103RD ST,8000,60628,41.70713532,-87.61824173
17031030706,1,Retailer,19562,61801,Rainbow Grocery,2003 W 69TH ST,2500,60636,41.76832833,-87.67381938
17031842600,1,Retailer,19506,61680,Noor Meat,2505 W DEVON AVE,3000,60659,41.99757381,-87.6925486
17031700100,1,Retailer,18562,57817,Kaps Foods,3557 S CALIFORNIA AVE,4100,60632,41.82838364,-87.69462017
17031062000,1,Retailer,18542,57700,La International,4301 S ARCHER AVE,3000,60632,41.81530069,-87.7020416
17031660400,1,Retailer,18537,57683,Harper Foods,1455 E 57TH ST,3300,60637,41.79141057,-87.58953263
17031590500,1,Retailer,18191,55665,Halal Meat & Grocery,1414 W DEVON AVE,2500,60660,41.99823739,-87.6661711
17031590700,1,Retailer,17975,1168793,Mayflower Food,2104 S ARCHER AVE,6000,60616,41.8542653,-87.63218951
17031833000,1,Retailer,17935,2013420,S L Pantry & Grill,4759 N SHERIDAN RD,2600,60640,41.96904667,-87.65467406
17031230500,1,Retailer,17784,53313,Cermak Produce,4800 W DIVERSEY AVE,10000,60639,41.93164142,-87.74671991
17031670800,1,Retailer,17625,52337,Hareer Food & Liquor,5452 S HALSTED ST,2500,60609,41.7945591,-87.64531343
17031611700,1,Retailer,17352,50737,Broadway Supermarket,4879 N BROADWAY,15000,60640,41.97117118,-87.65958098
17031838700,1,Retailer,17311,50432,Eddie's Food Mart,1858 W 63RD ST,4500,60636,41.77946116,-87.67143667
17031671500,1,Retailer,17241,49880,"La Loma ""carniceria Y Taqueria""",2535 N LARAMIE AVE,4501,60639,41.92703609,-87.75610618
17031031400,1,Retailer,17200,49648,"Grand Palace Supermarket, Inc",7131 S STATE ST,3000,60619,41.76457363,-87.62473997
17031730300,1,Retailer,17160,49322,Carniceria&fruteria El Mitote,4459 W BELMONT AVE,4500,60641,41.93881951,-87.7394338
17031580501,1,Retailer,17055,48663,200 Liquors,204 E 47TH ST,5000,60653,41.80942389,-87.6209518
17031842600,1,Retailer,16943,48081,Carniceria Jimenez,3850 W FULLERTON AVE,19000,60647,41.92462832,-87.72395332
17031530100,1,Retailer,16859,47617,The Neighborhood Store,8313 S RACINE AVE,4200,60620,41.74278773,-87.65338425
17031190602,1,Retailer,16717,46846,Khalil Food & Liquor,146 W 103RD ST,3000,60628,41.70721814,-87.62775156
17031130200,1,Retailer,16644,46295,Foodsmart,3415 W DIVERSEY AVE,3500,60647,41.93185278,-87.71290125
17031661000,1,Retailer,16493,44924,Miceli's Deli & Food Mart,2448 S OAKLEY AVE,4000,60608,41.84702046,-87.68319955
17031530501,1,Retailer,16473,44759,Harbor Market,155 N HARBOR DR,4200,60601,41.88475054,-87.61560396
17031490902,1,Retailer,16464,44723,The Produce Center,5820 N MILWAUKEE AVE,12000,60646,41.98726964,-87.7785157
17031251100,1,Retailer,16317,43697,Harvestime Foods,2632 W LAWRENCE AVE,8750,60625,41.96867023,-87.69516275
17031831700,1,Retailer,16221,42681,El Barrio Grocery,3938 W NORTH AVE,10001,60647,41.91000804,-87.72543846
17031400400,1,Retailer,16220,42672,L'appetito,875 N MICHIGAN AVE,2900,60611,41.89894854,-87.62397499
17031711500,1,Retailer,16133,41854,Dia Food & Liquor,1478 W 115TH ST,4500,60643,41.6849558,-87.65972583
17031190800,1,Retailer,16053,41036,"Way Low Discount Food, Inc.",1551 S KEDZIE AVE,2500,60623,41.85984596,-87.70533855
17031831200,1,Retailer,15968,40522,Clybourn Market,2807 N CLYBOURN AVE,3500,60618,41.93257918,-87.67832746
17031230700,1,Retailer,15902,40132,Crespo's Food Mart,4353 W MADISON ST,2800,60624,41.880505,-87.73512285
17031301801,1,Retailer,15829,39529,Lawndale Food Market,3705 W 16TH ST,6000,60623,41.85883397,-87.71786719
17031191302,1,Retailer,15748,40429,"Super Food & Liquors, Inc.",1049 W BRYN MAWR AVE,4000,60660,41.98356392,-87.65714629
17031837800,1,Retailer,15344,37096,County Fair Foods,10800 S WESTERN AVE,10001,60643,41.69723821,-87.6814748
17031140100,1,Retailer,15303,36823,Pete's Market,5724 S KEDZIE AVE,10001,60629,41.78911255,-87.70357973
17031835600,1,Retailer,15264,39968,Mid Town Foods,3855 W DIVISION ST,3520,60651,41.90258387,-87.72361925
17031842600,1,Retailer,15006,35191,Carniceria Ricardo,4419 W DIVERSEY AVE,5000,60639,41.93154075,-87.73757251
17031830900,1,Retailer,14901,34710,Seven Eleven,1425 W MONTROSE AVE,3000,60613,41.96152382,-87.66603986
17031840300,1,Retailer,14804,34046,Goldmore Food,1949 W 51ST ST,2500,60609,41.80112781,-87.67408034
17031140701,1,Retailer,14795,33970,Peoria Packing Ltd,1300 W LAKE ST,8000,60607,41.88558042,-87.65895691
17031010202,1,Retailer,14616,32952,Discount Pantry Corporation,4153 W 63RD ST,3600,60629,41.77849291,-87.72732752
17031380100,1,Retailer,14504,32288,Wally's International Market,3256 N MILWAUKEE AVE,10001,60618,41.94017781,-87.72585843
17031210602,1,Retailer,14392,31675,La Casa Del Pueblo Inc,1810 S BLUE ISLAND AVE,10001,60608,41.85745275,-87.66168833
17031081600,1,Retailer,14297,31219,Anar Inc,935 E 79TH ST,10001,60619,41.75121793,-87.60140141
17031243500,1,Retailer,12018,30144,Fresh Farms International,2626 W DEVON AVE,9500,60659,41.99773591,-87.69592888
17031510300,1,Retailer,11687,29515,Clarendon Food Mart Inc,4183 N CLARENDON AVE,10000,60613,41.9580048,-87.64965374
17031110400,1,Retailer,11681,29494,Melissa's Food & Liquors Inc,3867 W GRAND AVE,3500,60651,41.90505945,-87.72395138
17031300900,1,Retailer,11529,47965,Steve Food & Liquor,6058 S RACINE AVE,3500,60636,41.78333418,-87.65474328
17031040201,1,Retailer,11464,28222,Par Birdie Foods,2234 W DEVON AVE,6000,60659,41.99790097,-87.68637822
17031020500,1,Retailer,11448,28114,Kordian's Market,6332 W HIGGINS AVE,4610,60630,41.97598405,-87.78656131
17031020802,1,Retailer,11429,1169745,Chicago Food Corp,5800 N PULASKI RD,10000,60646,41.98592799,-87.72866342
17031280100,1,Retailer,11427,28022,Lemen Sun Corp.,2832 S WENTWORTH AVE,3600,60616,41.84160448,-87.6319155
17031200402,1,Retailer,11210,26972,"Ogies Food, Inc",2600 W LITHUANIAN PLAZA CT,10001,60629,41.76836584,-87.68830091
17031691200,1,Retailer,11123,26776,Stop & Go Food Mart,1622 W MONTEREY AVE,3250,60643,41.68957477,-87.66272315
17031081300,1,Retailer,11112,47780,Laxi Liquor,6922 W GRAND AVE,3200,60707,41.9236807,-87.79867613
17031220902,1,Retailer,11067,26609,La Feria Grocery,9704 S COMMERCIAL AVE,10001,60617,41.71891216,-87.5511743
17031170500,1,Retailer,10858,26464,Parkshore Market Ltd,195 N HARBOR DR,2860,60601,41.88617728,-87.6155996
17031260700,1,Retailer,10856,26376,Jolanta's International Deli,5914 W HIGGINS AVE,10001,60630,41.9727915,-87.77637186
17031841300,1,Retailer,10242,25165,W K R B Food & Liquor,9361 S COTTAGE GROVE AVE,4340,60619,41.72386029,-87.60436472
17031430600,1,Retailer,10046,39978,Supermercado El Guero #10 Inc,4023 S ARCHER AVE,10001,60632,41.82058304,-87.69342617
17031271800,1,Retailer,9833,24289,Windy City Inc,324 S CICERO AVE,4225,60644,41.87594436,-87.74525023
17031834200,1,Retailer,9830,24279,3600 Commissary,3600 N LAKE SHORE DR,3800,60613,41.94868367,-87.64364976
17031842800,1,Retailer,9535,23640,Fresh Buy Foods Inc,6319 S VERNON AVE,26000,60637,41.77966465,-87.61425094
17031831200,1,Retailer,9531,23627,National Fruit Stop,3523 W LAWRENCE AVE,3000,60625,41.96825564,-87.71687738
17031691400,1,Retailer,9485,23467,Orleans Market,316 W ILLINOIS ST,3002,60610,41.89086429,-87.63632919
17031150502,1,Retailer,9350,22715,Gilmart's  Food & Liquor,5044 S ARCHER AVE,10001,60632,41.80140003,-87.72604374
17031300800,1,Retailer,9341,22679,Jamaica Food & Liquor Inc,4252 S COTTAGE GROVE AVE,2500,60653,41.81702977,-87.60685792
17031330100,1,Retailer,9323,22624,Imperial Tower Market,4250 N MARINE DR,6031,60613,41.96001995,-87.64690603
17031840700,1,Retailer,9178,22084,Nickel Liquor & Mini Mart Inc,3637 W DIVISION ST,10001,60651,41.90263376,-87.71793124
17031660500,1,Retailer,9067,21927,Sunrise Food And Liquors,3737 W CHICAGO AVE,7000,60651,41.89531476,-87.72019984
17031700302,1,Retailer,8995,30859,J & A Oriental Food Mart,5755 W FULLERTON AVE,10001,60639,41.92379935,-87.77063324
17031831100,1,Retailer,8832,21239,Fruteria El Mercado,2759 S SPAULDING AVE,5500,60623,41.84093316,-87.70722418
17031381200,1,Retailer,8662,20973,Supermercado El Guero No. 8,2101 W CERMAK RD,14000,60608,41.85202569,-87.67841224
17031611200,1,Retailer,8639,20884,Cicero Deli Inc.,3206 N CICERO AVE,3600,60641,41.93904667,-87.74702197
17031842600,1,Retailer,8064,20046,"Latin Grocery & Liquor, Inc",3800 W NORTH AVE,10001,60647,41.91004942,-87.72145808
17031250600,1,Retailer,8018,19826,Potash Bros Inc,875 N STATE ST,10001,60610,41.8988782,-87.62811115
17031020602,1,Retailer,7945,46444,D & A Food & Liquor,1601 W GARFIELD BLVD,5500,60636,41.79355436,-87.66463755
17031150401,1,Retailer,7922,19348,W & R Food & Liquor Inc,1717 E 79TH ST,2700,60649,41.7514187,-87.58220582
17031020602,1,Retailer,7551,18768,Walgreens,6315 S KEDZIE AVE,Null,60629,41.77842134,-87.70297606
17031081500,1,Retailer,7551,18619,Walgreens,5401 S WENTWORTH AVE,Null,60609,41.79623488,-87.63040492
17031230600,1,Retailer,7551,1959845,Walgreens,1627 N PULASKI RD,Null,60639,41.91071448,-87.72621042
17031221500,1,Retailer,7524,18355,M & D Variety Store,1300 W 111TH ST,4500,60643,41.69231963,-87.65466321
17031630900,1,Retailer,7487,18231,Rodriguez Fruits & Vegetable,2458 S ST LOUIS AVE,2626,60623,41.84632986,-87.7125514
17031190602,1,Retailer,7111,17558,West Haven Market & Grill,2132 W WASHINGTON BLVD,3200,60612,41.88319447,-87.68046649
17031120200,1,Retailer,7109,17551,Key Food Liquor,13355 S INDIANA AVE,3800,60827,41.65197282,-87.61708374
17031243000,1,Retailer,7030,17168,Mandy's Liquor,1957 W LAWRENCE AVE,3000,60640,41.96865614,-87.67843848
17031842600,1,Retailer,6991,16986,La Providencia Food Mart,1658 W 21ST ST,2572,60608,41.85421937,-87.66845816
17031020500,1,Retailer,6928,16765,Edgewater Produce,5509 N CLARK ST,7400,60640,41.98197138,-87.66832103
17031031502,1,Retailer,6920,16735,"Rich's Deli & Liquor, Inc",857 N WESTERN AVE,3400,60622,41.89746098,-87.68673856
17031840800,1,Retailer,6917,16712,International Supermarket Inc,4556 S ASHLAND AVE,7500,60609,41.81056568,-87.66517052
17031831600,1,Retailer,6907,16647,P & I Food & Liquor Inc.,4154 W DIVISION ST,3000,60651,41.90270681,-87.73101807
17031490901,1,Retailer,6777,15860,Around The Clock,1605 W HOWARD ST,3000,60626,42.01926518,-87.67157207
17031670300,1,Retailer,6678,57265,Supermercado El Cubano Inc,4939 S ASHLAND AVE,2750,60609,41.80378232,-87.66469533
17031231200,1,Retailer,6639,15168,M & J Liquor & Grocery,3654 W LAWRENCE AVE,2900,60625,41.96843458,-87.72048101
17031660600,1,Retailer,6609,15042,Stanley's,1558 N ELSTON AVE,10001,60622,41.91057467,-87.66223523
17031670900,1,Retailer,6483,43181,A & B Food Market Inc,5057 W DIVISION ST,10001,60651,41.90216644,-87.75318235
17031151001,1,Retailer,6462,14103,Safah Food & Liquor Inc,7105 S RACINE AVE,3000,60636,41.7648964,-87.65396483
17031421200,1,Retailer,6377,13820,Discount Meat Company,339 W 79TH ST,4160,60620,41.75068744,-87.63338093
17031831100,1,Retailer,6373,13813,Central Park Foods Inc,3604 W GRAND AVE,8000,60651,41.90247367,-87.71681747
17031170300,1,Retailer,6312,13670,Caesar's Foods Inc,901 N DAMEN AVE,10001,60622,41.89777928,-87.67695887
17031550100,1,Retailer,6158,12952,Kol Tuv Kosher Foods Inc,2938 W DEVON AVE,3000,60659,41.99760128,-87.70361267
17031420700,1,Retailer,6018,12173,S & T Provision Co Inc,3804 W 111TH ST,10001,60655,41.69144591,-87.7156731
17031301801,1,Retailer,5928,11915,Moo & Oink Inc,4848 W MADISON ST,21500,60644,41.88058389,-87.74705294
17031250200,1,Retailer,5925,11900,Roman Bros 1 Inc,6978 N CLARK ST,10001,60626,42.00885647,-87.67408037
17031841100,1,Retailer,5463,11636,Ashland Food And Liquors,1554 W 95TH ST,10001,60643,41.72132699,-87.66253366
17031420800,1,Retailer,5273,1868821,Aldi Foods,821 W 115TH ST,16117,60643,41.68496064,-87.64302231
17031242400,1,Retailer,5273,14004,Aldi Foods,4645 W DIVERSEY AVE,15600,60639,41.93146094,-87.74371731
17031640300,1,Retailer,5273,1226990,Aldi Foods,1246 E 87TH ST,20848,60619,41.73691535,-87.59365662
17031081401,1,Retailer,5273,13998,Aldi Foods,2600 N CLYBOURN AVE,15540,60614,41.928695,-87.67419508
17031842400,1,Retailer,5273,1997726,Aldi Foods,7627 S ASHLAND AVE,18263,60620,41.75499092,-87.66340416
17031031200,1,Retailer,5273,1821323,Aldi Foods,10532 S INDIANAPOLIS AVE,16550,60617,41.70366236,-87.52571243
17031031200,1,Retailer,5273,13984,Aldi Foods,6220 N CALIFORNIA AVE,12646,60659,41.99462096,-87.69968686
17031832300,1,Retailer,5273,13986,Aldi Foods,3363 N MILWAUKEE AVE,12300,60641,41.94238351,-87.72901086
17031570100,1,Retailer,5273,14006,Aldi Foods,1739 W CERMAK RD,9495,60608,41.8521512,-87.6700746
17031260500,1,Retailer,5273,1515471,Aldi Foods,7800 S SOUTH CHICAGO AVE,15150,60619,41.75274564,-87.58752349
17031230400,1,Retailer,5273,13974,Aldi Foods,2431 W MONTROSE AVE,12571,60618,41.9611941,-87.68996697
17031070200,1,Retailer,5273,1242812,Aldi Foods,5629 W FILLMORE ST,15000,60644,41.86731565,-87.76559794
17031031200,1,Retailer,5273,13964,Aldi Foods,5775 S ARCHER AVE,13981,60638,41.79638049,-87.75734757
17031220602,1,Retailer,5273,13976,Aldi Foods,1767 N MILWAUKEE AVE,11760,60647,41.91358779,-87.68220284
17031681400,1,Retailer,5273,1817903,Aldi Foods,4500 N BROADWAY,15255,60640,41.96378896,-87.65660649
17031681000,1,Retailer,5273,1519765,Aldi Foods,4934 S KEDZIE AVE,15154,60632,41.80344571,-87.70398627
17031100100,1,Retailer,5273,13994,Aldi Foods,3835 W MADISON ST,15565,60624,41.88065941,-87.72219367
17031040202,1,Retailer,5273,1817904,Aldi Foods,6520 W FULLERTON AVE,11179,60707,41.9237604,-87.78874776
17031301802,1,Retailer,5273,13992,Aldi Foods,2828 N CENTRAL AVE,15565,60634,41.93215768,-87.7664246
17031835000,1,Retailer,5273,1743165,Aldi Foods,7545 S WESTERN AVE,16890,60620,41.75603509,-87.68285832
17031190602,1,Retailer,5273,14008,Aldi Foods,9017 S HALSTED ST,16340,60620,41.73029727,-87.64330909
17031832500,1,Retailer,5273,13990,Aldi Foods,8333 S CICERO AVE,16300,60652,41.74091107,-87.74092286
17031351000,1,Retailer,5273,1619769,Aldi Foods,1508 W 47TH ST,16370,60609,41.80874139,-87.66291163
17031140800,1,Retailer,5273,1547427,Aldi Foods,3030 S KEDZIE AVE,15154,60623,41.83811415,-87.70499446
17031843200,1,Retailer,5273,1975886,Aldi Foods,3320 W BELMONT AVE,18600,60618,41.93940519,-87.71090059
17031242500,1,Retailer,5273,1922075,Aldi Foods,6621 S COTTAGE GROVE AVE,16615,60637,41.77430588,-87.60564803
17031010702,1,Retailer,5273,14002,Aldi Foods,4501 S PULASKI RD,15540,60632,41.81145154,-87.72357465
17031061000,1,Retailer,5273,14010,Aldi Foods,6025 S WESTERN AVE,10001,60636,41.78396584,-87.68362338
17031841100,1,Retailer,5273,14011,Aldi Foods,2333 E 95TH ST,37000,60617,41.72246624,-87.56667305
17031842500,1,Retailer,5273,14000,Aldi Foods,4030 W WRIGHTWOOD AVE,14860,60639,41.92820785,-87.72815856
17031170100,1,Retailer,5273,13988,Aldi Foods,800 N KEDZIE AVE,12500,60651,41.89561531,-87.70670533
17031241000,1,Retailer,5273,13996,Aldi Foods,620 W 63RD ST,19410,60621,41.77992005,-87.64092551
17031671200,1,Retailer,5273,13978,Aldi Foods,5001 N PULASKI RD,14000,60630,41.97198122,-87.7279869
17031842200,1,Retailer,5273,1975885,Aldi Foods,1840 N CLYBOURN AVE,16924,60614,41.91442371,-87.65462784
17031510300,1,Retailer,5273,1743166,Aldi Foods,7333 S STATE ST,16890,60619,41.76088087,-87.62466578
17031835000,1,Retailer,5273,1959623,Aldi Foods,6221 N BROADWAY,15680,60660,41.99521146,-87.66027799
17031220702,1,Retailer,5270,11226,Jardan Food & Liquor,317 E GARFIELD BLVD,9500,60637,41.79432493,-87.61852061
17031540101,1,Retailer,5033,41674,Whole Foods,1340 S CANAL ST,68000,60607,41.86452119,-87.6393041
17031081800,1,Retailer,5033,1273445,Whole Foods,1 N HALSTED ST,39000,60661,41.88181563,-87.64721472
17031260600,1,Retailer,5033,41629,Whole Foods,3145 S ASHLAND AVE,10001,60608,41.83646835,-87.6655669
17031250700,1,Retailer,5033,41633,Whole Foods,6312 N NAGLE AVE,10001,60646,41.99598529,-87.78763712
17031570300,1,Retailer,5033,41625,Whole Foods,3350 N WESTERN AVE,10001,60618,41.9427472,-87.68835432
17031440101,1,Retailer,5033,1574461,Whole Foods,255 E GRAND AVE,49320,60611,41.89168984,-87.62044413
17031051400,1,Retailer,5033,41645,Whole Foods,6009 N BROADWAY,10001,60660,41.99118175,-87.66015508
17031250500,1,Retailer,5033,2042094,Whole Foods,5201 N SHERIDAN RD,55129,60640,41.97648167,-87.65483978
17031842400,1,Retailer,5033,41689,Whole Foods,1763 W HOWARD ST,72000,60626,42.01928855,-87.67505851
17031080400,1,Retailer,5033,41657,Whole Foods,2101 E 71ST ST,10001,60649,41.76599,-87.57378734
17031251100,1,Retailer,5033,1820382,Whole Foods,2021 W CHICAGO AVE,54963,60622,41.89578523,-87.67793089
17031836600,1,Retailer,5033,2042084,Whole Foods,5233 N LINCOLN AVE,48735,60625,41.9768951,-87.69227967
17031690400,1,Retailer,5033,41678,Whole Foods,424 W DIVISION ST,68000,60610,41.90388396,-87.6394372
17031670200,1,Retailer,5033,41682,Whole Foods,959 W FULLERTON AVE,26819,60614,41.92526828,-87.65348756
17031310800,1,Retailer,5033,41617,Whole Foods,2550 N CLYBOURN AVE,10001,60614,41.92787172,-87.67325881
17031260600,1,Retailer,5033,1969836,Whole Foods,6623 N DAMEN AVE,59488,60645,42.00222338,-87.68012883
17031221100,1,Retailer,4623,10400,Miara's Cont'l Pastry Deli Inc,7051 W ADDISON ST,5000,60634,41.94523382,-87.80292664
17031300700,1,Retailer,4469,1771323,Armitage Produce Inc,2007 N KIMBALL AVE,14340,60647,41.91756242,-87.71175511
17031842900,1,Retailer,4333,9412,Corcorans Pantry Inc,1105 W BRYN MAWR AVE,4200,60660,41.98354479,-87.65826767
17031843700,1,Retailer,4236,9138,Rainbow Finer Food & Liquor,6316 S ASHLAND AVE,3500,60636,41.77892241,-87.66435268
17031301701,1,Retailer,4227,9125,A & R Food Mart,5952 W GRAND AVE,2500,60639,41.92059646,-87.77519268
17031610400,1,Retailer,4213,9046,Ziad Certified Foods,513 E 47TH ST,2500,60653,41.80932287,-87.61333552
17031620300,1,Retailer,4189,8913,Personal Liquors Inc,4241 W MADISON ST,6000,60624,41.8805392,-87.73221604
17031300600,1,Retailer,4153,8745,Sam Food And Liquor,6812 N SHERIDAN RD,3000,60626,42.00594482,-87.66117475
17031740300,1,Retailer,4130,8647,"R & S Discount Food, Wine, & Liquor",2425 W DIVERSEY AVE,2800,60647,41.93204685,-87.68897869
17031320100,1,Retailer,4076,1772307,Supermercado Alex,4134 W 31ST ST,9375,60623,41.83694724,-87.72814236
17031190702,1,Retailer,3868,1275209,Andys Fruit Ranch,4733 N KEDZIE AVE,15000,60625,41.96762916,-87.70830369
17031400400,1,Retailer,3857,7546,Super Mercado El Guerro,1701 W 47TH ST,9375,60609,41.80847124,-87.66745451
17031310600,1,Retailer,3851,7507,Old World Market,5129 N BROADWAY,10001,60640,41.9754754,-87.65969701
17031010300,1,Retailer,3827,7382,Z & S Food & Liquor,1351 W 87TH ST,6000,60620,41.73575698,-87.65782823
17031140500,1,Retailer,3806,7302,Ma's & Pa's Grocery Snack Shop,804 S CALIFORNIA AVE,4500,60612,41.87087764,-87.69616688
17031431302,1,Retailer,3771,7168,Five Star Certified Inc,935 W 87TH ST,5000,60620,41.73590841,-87.64742288
17031580700,1,Retailer,3758,7110,Cupboard Food & Liquor,3260 W 55TH ST,3000,60632,41.79358918,-87.70594578
17031841700,1,Retailer,3685,6834,La Merced Inc,4335 W 26TH ST,10001,60623,41.8440328,-87.73243286
17031750600,1,Retailer,3630,6455,Polonia Food Mart,1956 W ARMITAGE AVE,10001,60622,41.91787072,-87.67748062
17031680900,1,Retailer,3619,6403,Riverside Deli,1656 W CORTLAND ST,5500,60622,41.91618612,-87.67013494
17031461000,1,Retailer,3604,39791,Quick Stop Food Mart,2751 W PRATT BLVD,3000,60645,42.00475007,-87.69942278
17031110300,1,Retailer,3550,6068,B & H Food & Grocery,713 S ALBANY AVE,4500,60612,41.87235004,-87.70327264
17031071100,1,Retailer,3546,6054,Super Mercado La Chiquita,3555 W 26TH ST,9500,60623,41.84427912,-87.71455377
17031140302,1,Retailer,3466,5644,J R Grocery Store,505 E 134TH ST,10001,60827,41.65176106,-87.60936661
17031600700,1,Retailer,3299,4908,The Fish Keg Inc,2233 W HOWARD ST,4000,60645,42.01939474,-87.6860205
17031490700,1,Retailer,3297,4900,Big Apple Finer Foods Inc,2345 N CLARK ST,9000,60614,41.92496618,-87.63992602
17031681000,1,Retailer,3289,4863,E.M. Groceries,5358 S CARPENTER ST,4500,60609,41.79612897,-87.6514349
17031580502,1,Retailer,3286,4851,Paulina Super Market Inc,7622 N PAULINA ST,7000,60626,42.02008732,-87.67323456
17031832600,1,Retailer,3277,4756,Nance Food Mart,10935 S WENTWORTH AVE,4500,60628,41.69515316,-87.62782024
17031842600,1,Retailer,3241,4429,Kamdar Plaza Inc,2646 W DEVON AVE,5500,60659,41.9977219,-87.6966411
17031230500,1,Retailer,3205,33473,Mini Mercado La Betania,2800 S TRIPP AVE,2640,60623,41.84039654,-87.73067501
17031230800,1,Retailer,3169,4146,Eddie & Son Food &liq.,3624 W NORTH AVE,2500,60647,41.91009267,-87.71757535
17031171000,1,Retailer,2926,40321,King Food & Liquor,6858 S HALSTED ST,3750,60621,41.7689263,-87.644656
17031160501,1,Retailer,2823,3166,H & Z Grocery Store,3638 W WRIGHTWOOD AVE,10001,60647,41.92834525,-87.7186709
17031710100,1,Retailer,2718,43513,El Milagro,3048 W 26TH ST,5500,60623,41.84468733,-87.70210294
17031130200,1,Retailer,408,2055,Lake View Foods Inc,4106 N SHERIDAN RD,3100,60613,41.9570403,-87.65476289
17031560800,1,Retailer,401,2036,"Seven Nine Eleven Food Mart, Inc.",4884 S ARCHER AVE,4300,60632,41.80462115,-87.71990707
17031081600,1,Retailer,371,1876,Gene's Sausage Shop & Deli,5330 W BELMONT AVE,5000,60641,41.93876197,-87.76040707
17031190602,1,Retailer,368,1865,Chicago Produce,3500 W LAWRENCE AVE,13500,60625,41.96848537,-87.71587133
17031833900,1,Retailer,299,1567,J And P Finer Foods,3501 W MONTROSE AVE,4500,60618,41.96098859,-87.71564632
17031310800,1,Retailer,291,1544,"S & K Food & Liquor, Inc.",7500 S EXCHANGE AVE,10001,60649,41.75899276,-87.56037781
17031070700,1,Retailer,263,1429,Mr G's Food & Liquor,332 E 58TH ST,3000,60637,41.78942986,-87.61784034
17031839700,1,Retailer,259,1323,Jewel Food Store,5343 N BROADWAY,25356,60640,41.97942825,-87.65980585
17031580502,1,Retailer,259,1325,Jewel Food Store,4250 N LINCOLN AVE,25490,60618,41.95910043,-87.68239224
17031711400,1,Retailer,259,1333,Jewel Food Store,1210 N CLARK ST,23845,60610,41.90426523,-87.63160329
17031151001,1,Retailer,259,1337,Jewel Food Store,4729 N CENTRAL AVE,24922,60630,41.96679711,-87.76729948
17031320100,1,Retailer,259,1356,Jewel Food Store,3940 E 106TH ST,22295,60617,41.7028061,-87.52770401
17031230500,1,Retailer,259,1366,Jewel Food Store,5320 S PULASKI RD,30374,60632,41.79619759,-87.72339188
17031170300,1,Retailer,259,1368,Jewel Food Store,87 W 87TH ST,30745,60620,41.73614513,-87.62691784
17031835800,1,Retailer,259,1372,Jewel Food Store,4734 N CUMBERLAND AVE,17676,60656,41.9660114,-87.83683117
17031200100,1,Retailer,259,1375,Jewel Food Store,2940 N ASHLAND AVE,22443,60657,41.93547203,-87.66865454
17031340400,1,Retailer,259,1380,Jewel Food Store,4355 N SHERIDAN RD,23660,60613,41.96139778,-87.65459297
17031611200,1,Retailer,259,1382,Jewel Food Store,3570 N ELSTON AVE,24815,60618,41.9460576,-87.70823011
17031390400,1,Retailer,259,1385,Jewel Food Store,3531 N BROADWAY,20285,60657,41.94638465,-87.64652486
17031071500,1,Retailer,259,1388,Jewel Food Store,3128 W 103RD ST,20860,60655,41.70631284,-87.69976712
17031660900,1,Retailer,259,1392,Jewel Food Store,7342 W FOSTER AVE,29421,60656,41.97454295,-87.81134688
17031580600,1,Retailer,259,1394,Jewel Food Store,5516 N CLARK ST,19238,60640,41.98218988,-87.66865163
17031050600,1,Retailer,259,1398,Jewel Food Store,1341 N PAULINA ST,24262,60622,41.9062437,-87.66986228
17031020500,1,Retailer,259,1400,Jewel Food Store,6057 S WESTERN AVE,21785,60636,41.78306114,-87.68359887
17031691000,1,Retailer,259,1402,Jewel Food Store,3644 S ARCHER AVE,25431,60609,41.8275839,-87.68245444
17031030103,1,Retailer,259,1404,Jewel Food Store,9400 S ASHLAND AVE,32294,60620,41.72294122,-87.66286287
17031750500,1,Retailer,259,1406,Jewel Food Store,4042 W FOSTER AVE,29060,60630,41.97562411,-87.72984456
17031490800,1,Retailer,259,1409,Jewel Food Store,4660 W IRVING PARK RD,35000,60641,41.95355444,-87.74505531
17031071400,1,Retailer,259,1411,Jewel Food Store,1655 E 95TH ST,10001,60617,41.7222632,-87.58291763
17031171000,1,Retailer,259,1000572,Jewel Food Store,7530 S STONY ISLAND AVE,31951,60649,41.75780566,-87.58626826
17031020602,1,Retailer,259,1142451,Jewel Food Store,1224 S WABASH AVE,60271,60605,41.86672435,-87.62596115
17031032100,1,Retailer,259,1144384,Jewel Food Store,443 E 34TH ST,37641,60616,41.83304474,-87.61461136
17031170900,1,Retailer,259,1144401,Jewel Food Store,6430 W IRVING PARK RD,29299,60634,41.95301023,-87.78770716
17031110100,1,Retailer,259,1192905,Jewel Food Store,1220 S ASHLAND AVE,63407,60608,41.86625418,-87.66652414
17031671500,1,Retailer,259,1192909,Jewel Food Store,3400 N WESTERN AVE,56010,60618,41.94318737,-87.68830202
17031660400,1,Retailer,259,1225534,Jewel Food Store,6107 S ARCHER AVE,49513,60638,41.79435485,-87.77052715
17031151002,1,Retailer,259,1226337,Jewel Food Store,550 N STATE ST,31600,60610,41.89242137,-87.62823487
17031650301,1,Retailer,259,1353385,Jewel Food Store,2520 N NARRAGANSETT AVE,64285,60639,41.92629696,-87.78569482
17031831500,1,Retailer,259,1953613,Jewel Food Store,11730 S MARSHFIELD AVE,62603,60643,41.68033221,-87.66258468
17031530600,1,Retailer,259,2037181,Jewel Food Store,3630 N SOUTHPORT AVE,62349,60613,41.94800455,-87.66418623
17031252202,1,Retailer,215,1129,International Foods Nw Inc,4404 W FULLERTON AVE,14000,60639,41.92447264,-87.73678951
17031390100,1,Retailer,205,1094,One Stop Food & Liquor Store,4301 S LAKE PARK AVE,58000,60653,41.81686515,-87.59868884
17031670300,1,Retailer,186,980,"7400 S Halsted Food And Liquors, Inc.",7400 S HALSTED ST,10001,60621,41.75967458,-87.64442024
17031700402,1,Retailer,185,971,Athens Grocery,324 S HALSTED ST,2600,60661,41.87716213,-87.64736429
17031840700,1,Retailer,154,822,Joe's Food & Liquor,3626 W LAWRENCE AVE,3500,60625,41.96844525,-87.71941658
17031210800,1,Retailer,148,788,Hilltop Liquors Mart,10259 S MICHIGAN AVE,3200,60628,41.70724797,-87.62005636
17031301803,1,Retailer,147,18449,Walgreens,3405 S DR MARTIN LUTHER KING JR DR,Null,60616,41.8326245,-87.6168411
17031140800,1,Retailer,147,18419,Walgreens,1554 E 55TH ST,Null,60615,41.79529732,-87.58782256
17031461000,1,Retailer,147,1248924,Walgreens,6016 W 63RD ST,Null,60638,41.77795816,-87.7722942
17031750500,1,Retailer,147,18468,Walgreens,4005 W 26TH ST,Null,60623,41.84414469,-87.72477825
17031230400,1,Retailer,147,18551,Walgreens,6330 S DR MARTIN LUTHER KING JR DR,Null,60637,41.77929761,-87.61574988
17031241500,1,Retailer,147,1144217,Walgreens,2924 E 92ND ST,Null,60617,41.72833654,-87.55286024
17031661000,1,Retailer,90,491,"La Unica Food Mart, Inc.",1515 W DEVON AVE,5000,60660,41.99799346,-87.66842789
17031060400,1,Retailer,80,440,Jerusalem Liquors,3133 W LAWRENCE AVE,4500,60625,41.9683547,-87.70739432
17031840800,1,Retailer,21,164,Potash Bros. Supermarket,1525 N CLARK ST,12000,60610,41.91011794,-87.63149089
